recipient,name,transactions_90D,transactions_180D,active_addresses_90D,active_addresses_180D,farcaster_users_90D,farcaster_users_180D,daily_active_addresses_90D,daily_active_addresses_180D,uuid_list,application_id_list
0x0000000000000000000000000000000000000000,Aragon ,847.0,1482.0,414,709,10,25,6,5,['564c6ffc-f42b-41d2-aee7-bf808411c32f'],['0xf8a4f14a041de9edea52c6bb4438db83e3628c99995957671b3084b32723b844']
0x0000000000000000000000000000000000000000,Arcadia Finance,1030.0,1504.0,407,701,93,181,5,5,['bfaa1c75-7b03-4b76-bdbb-b8a2916bfab9'],['0x855b930c39eb78fe9ab6929f03dcab557ba3fed5600cdc87e4bc9539fa790ed5']
0x0000000000000000000000000000000000000000,ArtGridz,15.0,15.0,10,10,1,1,0,0,['df4b7415-d79b-4bdb-86f0-2ce0d2b86dc2'],['0x536f966a3602942ba012f8f273a25783df522295838a0f862bdec18d7c0644a5']
0x0000000000000000000000000000000000000000,BLOBz,303.0,15599.0,129,14922,5,2008,1,84,['ac2dbb86-c2b4-4994-88ce-c77fa6b84c0f'],['0xea53703efa4ccaea7814ef95b215169c09678249fe91dd6c0e1c748b07fb2249']
0x0000000000000000000000000000000000000000,BLOBz on Base,40.0,16008.0,36,15222,16,2569,0,86,['e2f98d69-e781-4535-a13a-c779988cd03c'],['0x127f470810a1fc8bb8c585ade79d291c5e64ddfb0cc3bf5769eeb1585fc492da']
0x0000000000000000000000000000000000000000,BLOBz on Mode,3.0,15328.0,2,7651,2,1193,0,42,['e077e5b8-7fa9-4ea1-b2b2-0cc8f4e498b2'],['0x79178fe39ec3ab6a3688ad73f8ce494d0a0a28833510f1aa3ebde0da06297bc4']
0x0000000000000000000000000000000000000000,BLOBz on Zora,18.0,13310.0,17,12459,12,2218,0,70,['3a90aec1-27a2-4632-aca3-1e7f35a8f06e'],['0x8a0be8a1b3a8b882ab647db8c0b70afde2ded984327beda9ad708d5bf049e73b']
0x0000000000000000000000000000000000000000,CryptoRank Token & NFT Bridge,8273.0,20987.0,3856,10238,625,2554,47,61,['10d1b5dc-de39-4529-a9d8-d08517d87c8c'],['0xa582760a977184d9d9c113d86021550e64257fc8ea6c1a25d4d38d5aad017818']
0x0000000000000000000000000000000000000000,DUDEGEN,24795.0,24795.0,1300,1300,217,217,24,12,['da1a427e-de53-42d2-a8e1-92cc90c01a91'],['0xf278abe0c03067042febf07357000fa97b5ef7e3be0ee8035ac723951893e13a']
0x0000000000000000000000000000000000000000,Equalizer Exchange,15098.0,34397.0,786,1316,66,137,83,103,['7f55e01c-0242-4272-9d30-6c7109a1504e'],['0x388049b369ed4dec40098adf93391b4efd0a5c5c2e035c601850c64b9000c19e']
0x0000000000000000000000000000000000000000,Extra Finance,429783.0,831946.0,48942,66869,3314,4653,1632,1529,"['1c4bdd60-f869-4885-be1f-07c758a92898', '2042cf4f-a3dd-4f1c-946b-057cacfbda24', '2562f1d8-773d-48cf-ac3c-d65e632e1e74', '68e080cb-967a-4311-9114-40a71e48d6bb', 'ef5a836a-3133-4322-bcda-5878dfbdddc1']","['0xbe14554df0ccce5c652c545f885bd290e60cb944d053166431071d40a882e482', '0x9d51d0c04f7ec9a5376734bff9fe47c6d2a2503e22ddcb2252ef6dcb860d84da', '0x08df0033d76800cacbbbab4d678ba7a0cbfb03a26b55e7e1af8279d84d11bee4', '0x52ea121254dc43ba13f64d9116a0d2c9d5d60084c3fc45196ab0ccfa80ad17cf', '0x5f7fdc64de58286a56bea9027950c48cf611649ba5100ec2de69eb05419f7188']"
0x0000000000000000000000000000000000000000,Extra Finance (Base),1335860.0,2414497.0,29770,43744,3028,4064,1005,879,"['05d2a0b5-d992-41f2-8084-08322192abc4', '0eb3749d-9ea7-4c1c-9908-0e4fb4755975', '10168062-e18c-4f91-a214-a126cd9f3cbc', '136a42d8-4e02-4932-836c-aff33bb9bcbe', '4087168d-f788-45ea-ad71-08105452abaf', '42097b50-47c5-45bb-8872-6f1c42c32663', '4d17dd6e-543e-4fd3-8b72-9070f0a9cd96', '4f185f8a-50c9-44c0-b7c1-e918881df887', '548d8432-a50b-40a6-bba3-47b208636b79', '5c6bafc8-a69e-4550-a8a8-603ec33b59e2', '6650e99e-f9fa-4760-9c4a-1772ff426ed7', '6d13d31a-d799-46f1-a02a-9de4dfdeb121', '6da6fff9-2fd0-4717-97de-f57e20186ddd', '71db67a7-2a54-4837-afbf-8ba2de77d4a1', '73e34214-0625-41ba-a0a1-664c0f734812', '7a6b336c-5033-4129-9464-c880bc59d655', '81033a44-0cd1-49d0-a55f-13949cad7a24', '87db91eb-a5df-4b74-bf86-bf36e2870d57', '95899926-4ec1-4857-8912-7be3d5b828d7', '95e3e0e4-772f-4b7f-8fbd-0fa1a35c39f7', '980a311c-0f9a-45b3-9cf9-2e0e17081bbf', '9bd47e9c-34d7-4aa6-8045-0e86088a01d4', '9fae12f9-81b2-4bf5-82af-df8359ea07de', 'a2fdba82-31b9-4790-ab9f-943c3938a500', 'a9636d73-db9f-462a-9dd4-7d23cdfc72a7', 'addaa447-104d-48d9-a587-13a46065266a', 'b84fe5d1-5507-4388-9451-4e657edd54da', 'd67f6334-f1d9-4cb9-8a17-9167ae690b16', 'dc40120d-41c7-4417-b83a-b28fcbe01b6e', 'e22f7b65-2395-455f-8b69-1c95ac959acc', 'e57a7b35-20a5-4022-ae69-d0dfa9c6a7b7', 'f1e3fce7-8fae-44b9-bd66-766f621cdbc2', 'f4592ad4-0857-4032-87c6-3d11dd4c937a']","['0x800b24e08c536ab8fbe1e3a7f27f47f3d6198b7c3f183d94276c0e6b736c3846', '0x18233c6aee1b0276c807c42a64a526c5f5643c38daf3967773523f570bc08149', '0x62aac49a1612293209fe21062568d4ae71759d0163f7e2b7211d98ca2cda0d41', '0x9419880af902aa1bdc819fd32ec969383e7fd7e52a43cc514d8499adeaaa8001', '0xb83d33308ca8afeaafb78c6d2d1cbc2437ba73d4d1ef59cec4b4516949716710', '0x83d09cb1c2cabceac17e64c7afbbc544cbb4ee011bdc305c8289e83133d78fdc', '0x6f08d56b3856826fa7cbea1bd2aed992e5955726141c09e0727bd268c975f8ca', '0x25f86cb9c66bd712f82ad77a18dab79555bcec30fb7e7cf77de9635c736a9003', '0x48f5d01d0dfa98ba81ea860f45785e45744490438553dd0267778ad37bb7c662', '0x50702bf70cd33c9307035aacd768859b05b099c8953106048172c6a8ec0fb67b', '0x499f181ee85abf97d577792c37ed81afbd1d0056b50ce4ee8c7fc41c4adceb2f', '0x7e2ef832300a180ad78db0668a7c02a12dd901d90cc1bed3f90f9d9f2613ca04', '0x13b05ad6cffc08bdee11b69cb3de3d3dbacc6d20ec3a640db4a7e295335b1960', '0xe56ec887b217e02760ac1a408802914e82a60f11aa10b02c072a72136c7881bb', '0xd588a3da9b7250b0b17c87390314760d531da1988c8913bb10063b71783c40c8', '0x1e9a2beee421f570213d8f8a4ce85d8c0271586162a77cf0610cbc9ca5dbdfa5', '0x7b00af0d78899a448667cfd616489ea876d091fb81835720c6b8615c32d57642', '0x062e0669e7cc3983b82904242c70969357ae1e9a7048cef913a0feb66bb4711a', '0xd8d98cba9dd4b1e80ec3123cc8bb957d9b6ed1a3ddcd2fc54f27fc8353d9dadc', '0x26185de42a71f93ce6c8d3d7a4dab0d9286d351ec9fcd80589de1b4731cf5933', '0xbd825550305c7762b58087d2c02fde25be6145cfd336508cde84758f3b76d98f', '0x87d33263218d974464d2520afd0873bbf77ba61361b68cf18d8c1d5a43058108', '0xfd69d7910f22f380d68ab6b020f7f33cd3fbbfafde35ec15da55cfa5938c8d67', '0x5edf6eb4fe66e948dfe609291f65ef95971819d485745f0caf6ac334a36dccbb', '0x6f7c625970db40df041d07980d03a326d436a704c62a053c5347b7397189d2ca', '0xa037b4b24232c67d48c2306246eb668f0c0ec6817c5ac4143506de327d6a2a04', '0xe9f1bfa315e3acfa50a79e68953bda9c5d989680034a4b69c5d4245e9aef55ba', '0x1c6075a90c796711785febcf2654aded378afc6676acae107b786f009511583e', '0x3f070d884d884b7e951bdb42dd966ba6a003380bfc9daa4d7e58354529d7b531', '0x9f9eb8fd1085a02870e0f1ee34d87a3a516b14990d6bee754efed505f3af02d2', '0xb58417efded17e7ea778fd9955bb660977dffdd92011c780ea8ad1bbb3fa3419', '0x7e77ceb3decfbdcf5f65706ba9d08add3c8263ea683b529a54f90c8e3a36d1da', '0x079ea06df8d4b2548e8501465409421640e45be7a586b44dc572a41c9f9a2f12']"
0x0000000000000000000000000000000000000000,Extra Finance (OP),294758.0,664643.0,4006,7131,401,745,242,269,"['0052287b-4f92-4994-9289-2eec8dcdef7a', '0f01e1a1-4a16-41e0-bebb-587e79ebdb8e', '14c58b16-5a99-4420-ab80-0ff6f547f6bc', '21526586-4609-4794-a4ba-6580844ea614', '2cb8e3bd-afb8-468e-b6ee-6b726cce8337', '2f3f760c-dff7-47e6-a262-0ad44049ba32', '45eff953-055d-489a-bc62-60615cb3af35', '4b8f6560-3041-4230-ac4f-19c36b87cae9', '5a277efe-8a04-4614-a70d-736d831bdc93', '8322a99b-fb04-47fb-bd7a-0c8fe51bb335', '8bfbfe7c-d66a-4e72-83be-88bf7ce40dc0', '954dde9d-68a0-488a-b2ad-46feab3ff5ca', '95d8efac-7497-4efa-a583-ea86f705e50f', '974cdc54-fdb7-454e-8868-91c974ea56da', 'c560111e-7d25-4bf1-9e59-50730fe7bba1', 'cbca61eb-2453-4483-b1ce-8ba29c91f933', 'cd6bc8d3-8f36-48b0-b739-9e05610fd5b7', 'cef850ba-1033-46c7-a5bc-63416175ad06', 'd67abb62-817f-4736-a749-6e71488eed8c', 'df4a97ee-1fbc-4378-84f0-3ff27dabb9ab']","['0x474009db86fc03730b90c2beb8f4eabf8caef7dd291f0625784c2c6d7530ab0d', '0xa9a8e38f2b93ddc2f7c8b247bae32a5f6543ee029b944811dd9ed84ce0e75fdc', '0xa8a813be6d8e6c8dcbbee52bacb1b4beebb4638ce8179d256dde9ac3e365df48', '0xd1f462dd1be1d9dd03babecd5955b5d5fb5bb6d52bb0e0eba2b4faa408d9ca84', '0x37ddeec337b16088e4e604ef19f655f95da3e64c4c2733fb9fda1b34fb6bb4d5', '0x7d5932ea5133ffb90d22f79e5891625548c25a284fc1dcb59a13d6881fe231d4', '0x1485e91390b4c378f8136ad7289ab923894f5a9ce65550b5412e2e1233b375f4', '0x2a38354b465d452ca14f7a7c360c7baf1b6ec82ee149a75fa3dee5e2252abd78', '0x22afb53f34fb54ced900cc5135590122f764a9455f37d06979010fb77889abb1', '0xd483a973d43b71c4125fa4c365c1d311a3a97d94e41ebb7cda7f95c9a750541a', '0x116571eaee1c107a2a16890539614dc8d67a2fc61db3e1b2692161b93fc00ac9', '0x18b8fc88b627bfdda97c6ceac493d526107a0f9bea461fd7ba49d114f4ddfce0', '0xb521558aec37e5a45208d8fb55ec05449a6fa682bf90474272dbe916cde817c1', '0xe4ee1bb26ddf94287c862afe17350fdb273248cebf821668b73e0335c1d416c3', '0xd0a4c2f58123ee9081c68e0d71d4043416121eb940d96ad9b3d72f13a5d7276d', '0x945b06b59d2548928557f72c3e6e9adec17e9b9fe067639f7d7c9c56d13e9beb', '0x534dcd63a5d7dccf3c48d9accb8e907c3229f1dd680f2d5c8a94e4e9a6576e5b', '0x6073c5b3973d4cd28021ceb905117baef5bd7737748131015cfb7a2158cbdd1c', '0x32b958560dea21cf3e687b5489d79269334793abfea33a4180a29f34058b4caa', '0xf79e7c76dcc42216a72e1586a4805fb5f71715c0c0edc8849bb3b24e9e1669d7']"
0x0000000000000000000000000000000000000000,GiveStation,24.0,542.0,19,501,1,2,0,2,['e7dd162f-b609-465a-a416-a6e4b836da2d'],['0x9fec1b1a4bcbb5504a2f885526ddbda90953c2d0bca1ea8ee3c0edf57b68cf03']
0x0000000000000000000000000000000000000000,Intract,17953.0,17966.0,15515,15520,5186,5189,195,97,['de37c3d5-3a47-4653-8d62-08ce127b6e59'],['0xed339f71b87f4e03b6670f6c2ac88af88c1fbac806d18a4dfb2b8f53e001ec43']
0x0000000000000000000000000000000000000000,JEFE TOKEN,2998.0,15446.0,181,311,7,14,13,14,['0a8c18b2-c54f-4334-b1cc-8b655f5b130f'],['0x633efb52fa46c07c242c42175c9f3f43d683409af9c8d407c8c231959330cd01']
0x0000000000000000000000000000000000000000,Lido Finance,1346114.0,2050450.0,41143,80766,11624,17098,1121,1182,['0a08cce6-1a54-40c0-930d-027277dd2205'],['0x9ee3e22f8ebdedbb06accc304d00494c1adcfca56c70c79bdbf70244e93414c0']
0x0000000000000000000000000000000000000000,MACH10,1030.0,1504.0,407,701,93,181,5,5,['edbc4be9-766a-4896-9589-3531b578ff5c'],['0x1c4226c7d5999c26666ea684d95e36304d84047e066733a8537d391ba8eb122f']
0x0000000000000000000000000000000000000000,MagicalTux,2528.0,20471.0,629,3204,49,368,17,55,['e694b4c2-9394-4048-ab5d-d23c14c1cef8'],['0x832f864893035ed783f28f5b998d228c08678806e54607639e1823b59c5857f9']
0x0000000000000000000000000000000000000000,Micro3,49014.0,64567.0,3020,4384,1300,1769,530,349,['4c1fd2f8-1c08-4508-b17b-23cf65ba4d81'],['0x8816277f7e1ba12fa07490874886519350e10aa987f38427170c55726b274c48']
0x0000000000000000000000000000000000000000,Mind3,71.0,71.0,65,65,60,60,0,0,['5627e5e6-0c0e-442e-ac20-2ba8fcf32091'],['0xc1fa9009daa8939e776a330ba458fe0a00a4664979b72d4298f76c9af01b05e7']
0x0000000000000000000000000000000000000000,Mintify,140.0,4800.0,127,1165,34,279,1,8,['4673d610-235f-45c6-ab81-4c113b93a63b'],['0xe1f22df3fbef95845558d185b4167c465bd5e54e523b72d9a27fdc988d88cab5']
0x0000000000000000000000000000000000000000,Owlto Finance,1375490.0,1730310.0,66739,84702,16510,19738,7222,4566,"['13b449e9-24cc-4ee8-839a-fd84fd002ed4', '6c2180d4-5a2c-452e-8136-3a3474877815', '9f3e6766-c51b-45c6-846c-34dc5857f1da', '9f9e8469-5d39-45a0-976c-f5fcd083e4f2', 'a73e00af-cb02-49dd-a018-44e7993e0cb4', 'b3ef6751-295e-4acf-8d46-c756fd7cd9fc', 'd8e904ce-e845-4ea5-9765-f866acbff492', 'ea860fc5-1a57-4712-a4ab-7c8d15ccef79', 'f0a5ff91-b4e9-46a6-807f-d84b3ce7b7b1']","['0x8c724e0da2faa05665be48ccc05d1f814742d93e8f287d8d90271d049c44606f', '0x64641995c0ee76b4fd0b88a0aff299e16d392de80a1c0413a046364c2284ac26', '0xf6bb2207614e30a2e7d64a29ae4839d48cd2246c5f937084965b87ab598c76aa', '0x212e47f63626cbf4cb4a8a86f33238c2fbbbaa733063d0a1a6921a83c4bd2dfe', '0x2e41c5666476ff6a215a9f0c1e80f275d8cc6a138e10805bfeffd5973a3f7ff0', '0xd4e02ab18d73ea3c3def87b73a0eba1697ca64e4828c49b455e09e79a01bfae6', '0x6f9784bab6841be1a3a33aeb1a0459437aa2672fe8fdda627934bc585a8e440c', '0xc2c667f888c0e5a0b75546e7279afa9f8c1eceac89289ae7b22c771f179c74d3', '0x87e7bbd18762bdd154ece86ca1964d326d530cef6033cf3eb384dbb1fd9d6305']"
0x0000000000000000000000000000000000000000,Peapods Finance,49577.0,58152.0,2187,3199,356,603,74,48,['f01e091a-ca3a-4ae0-8eb1-6302188e9278'],['0x8f2f7d65377aa8a816a64f22119dd1f509ef13808b73b7a78052eb21ba679730']
0x0000000000000000000000000000000000000000,Radiant Capital,87409.0,87444.0,1326,1330,131,131,80,40,"['27c8dcfb-1db0-4193-96eb-51d07795bae6', '399b2fa6-3c51-46b3-a6b5-5e76900103ad', '9355b4e4-095e-4854-81da-209c48a065db', 'b5467101-d58e-42ab-8b4d-0155296c9e8a']","['0xc27fc70166964115ebaff8c8727e5946a34c395829cd46c481c6c57cf3ddba6a', '0x3f510801ba16ee7c0c46c42830303698312ade34c968b76fb75bacc1e684c698', '0x017c7ee83075bb3eabb8964bf4d0debb8ef0cdf7ee49531f56ec0941212da1db', '0xbac3c97e6fb83e860ccd589a398f80d9a3814463f052c1f7ef9565a0627f78e0']"
0x0000000000000000000000000000000000000000,Remote Control,6369.0,6369.0,830,830,496,496,21,10,['c2530b32-dc3f-44d6-9722-6270e6866fc7'],['0x53175df90ea01349a03cf905a5d35e8a8ed1a122d3032e5579896f32c9a8700b']
0x0000000000000000000000000000000000000000,Rodeo,156562.0,156562.0,6042,6042,4323,4323,266,133,['5150f019-7b34-4f19-bc85-278301eeb35f'],['0xd1af91c3d03c91fa62cb222123d24c7b3f250d24e7224e004532e9b957ef3f7d']
0x0000000000000000000000000000000000000000,SwapMode,52050.0,210604.0,23,24,1,1,17,15,"['6abf69a8-b174-4fec-8b16-7f923f41623c', '79586cb4-cb58-4424-8c07-3812951588a3']","['0x773c8b23387b96e5d73954792b0bc192313608951b60fa0424fbdb6e7ee43074', '0x907d871a8a8dc9af0acef038b40189479e8d40ae82c42c7ed84dc0340b8af8be']"
0x0000000000000000000000000000000000000000,The MVHQ App,218.0,107770.0,187,106428,46,24979,2,594,['286e9c11-c4b2-4693-a6c3-5b606364ebad'],['0x8b92005c16499a4081884bd7f8e29626dc39ec4c49866e853925b9d3052933e0']
0x0000000000000000000000000000000000000000,Time.fun,13965.0,13965.0,1811,1811,6,6,32,16,['c998e244-23fe-4172-b850-dd2c1e264529'],['0x671db75def52fd3641f240f52d5805a50a1c069bcee2525b254ab1b83a1f8900']
0x0000000000000000000000000000000000000000,Unitus,320.0,685.0,26,56,2,4,2,2,['0441d637-54e1-4e6b-bce3-4c7b6dc50c47'],['0x35a372e44e86a21b9c4b3b8ff37d29122cba8b4612f010be6a0558b69c983687']
0x0000000000000000000000000000000000000000,stVol,6001.0,6001.0,132,132,21,21,3,1,['fe568f15-6e68-44fc-a355-de255b01502a'],['0x01e15817ba1feed50c67699f8ff4efc5959f6fb0b0dec64ebbfb0075bac5cfbc']
0x01133c3834a96aDd681a9C9Ad3b2f955968ed60F,ArbiLearn,36.0,36.0,10,10,1,1,0,0,"['6abc3227-4e7f-4786-863c-abdd23f488a2', '72d91704-0a5f-4ec7-9e6b-92d5d72df0bc']","['0x6c2055fcf064d103c27eaf3cb65e06ccebf3c740287cd46b2f6970b3dc92be52', '0xcc9ac0cc10bc7457f0d7360f399f95c42cafcc08cdede0a1498940b3c3f89118']"
0x013437412c41716f72B54fE66d7c11858aFe4894,BetBase,12901.0,32785.0,2146,4295,224,496,60,68,['8bd5539d-ef65-4f2c-9014-3fc11620f12f'],['0x04f2233951090d71b8808b4ec44c5420cbb51ab4de3f6cd174b07fe65a8cfa57']
0x022541dF816F50CfC6ce60c9de80619F44f7CeF1,datalatte,73.0,73.0,4,4,4,4,0,0,['78f0eac0-c56e-489c-a4e3-9c700ccf4ce8'],['0x1106ce8ccc67bc916b45abf5a57bb0e27973ab45a4c581a9e9499449e53322c7']
0x02cdD55Bea4d8Ef7E7dDA6A60305a03dfaB0C128,/send,51909.0,64239.0,2380,4329,142,307,71,72,"['40e9c64b-e468-4a27-8dfa-b392f5813c2e', '91d27ce9-b7f8-4c31-bba2-f8a0ba72eadb', 'b6cb620b-63ad-4ff7-b9bf-53c66db71dad', 'f7e0b2d9-b0c5-4464-9994-9ae3984a3579']","['0xa75ccd87c3fbb292bf9a322763a0b486e26f52b116c7def6f3220cac639ed1cc', '0x955198343589dfbf38f586759273ae6dbb4a9a1f8da4da397a6e0d47d151f8d5', '0xaf17857681965d3457e242fd9cd612bfb7cc01f90fb69a5ad1462ddb98f234ea', '0x460f2a03537c8441dea7bdfa961d60195a028106d566e9a703e59f8486035b4f']"
0x035eBd096AFa6b98372494C7f08f3402324117D3,Namespace - ENS Subname Sorcery,1683.0,1683.0,143,143,125,125,1,0,['45ca2132-cb78-4e41-aca2-61f2fe8c71c1'],['0xfc0b7702a61f526884036d21179a8800696f1ff1384fc276093b6c8cd9e0e328']
0x04333a1788a47068b9102D2d35695c312A0b312F,Flexclub,26.0,26.0,4,4,4,4,0,0,['60d26207-b562-4d92-b3af-1274cf7617b7'],['0x896998468f15b6decf26bef3903b580747f9c1ae5dff1e7cff400fe129d0ef46']
0x073f0DC58e9989C827bA5b7b35570B7315652e63,Gloom,132.0,41802.0,111,8195,49,5279,1,78,['b7e11cb2-d643-4f5f-99ce-803f396b31a5'],['0x9669547927613b0bff9a5db7738bc0ddb80d3deaebaef01cf75f67798ca61551']
0x08D816526BdC9d077DD685Bd9FA49F58A5Ab8e48,Collectr,217.0,217.0,164,164,57,57,2,1,['cb6ef65c-3136-4af7-9be1-c993d8789376'],['0xcd439dec608d3fa7bbc8852e9f3b35102dd856dfa796d91ddb803781c2473e81']
0x091Ce12B4592f1b434e597374BF6F054904F200A,Event Horizon DEX,319582.0,319702.0,69228,69245,6959,6962,851,426,"['278bd0d9-4887-44bb-bbdd-37f88a5f0e6b', '3b2e3fce-6673-4e1d-8b7d-83431ad27ee6', '3bbe2463-0d9b-4d12-bf59-1eaab405e941', '4c5edadc-00b0-4063-a62c-fc768c164921', '578a22eb-31d1-47d4-90fe-516b380b588a', '643b9cf2-c91b-4b10-9efc-3afa8beec654', '8280bdf5-79bf-4d5e-88c0-2ab18741e0f9', '8e56e88c-f02d-48cd-8208-9ebef2287d21', 'a8e6bf30-59cb-4b11-b938-8353effd846c', 'baa4fa61-e1e8-4e5f-91a4-9fceb08796ff']","['0x9309e4e621bbbca4cc1f9de736a0ee6f68142013a4ab555a0e2070c244cdc4d0', '0xceff880a8224685e3f0af226292f1edd7e33f09201fc362d820e2459ed682550', '0x0069e8ed99735e8e1187060ccde5ba20de9b8f574dbf9aecb21927592a6dfd28', '0xc03d1f5cb93ea09d0c8f98ad0ee97e7a47f1f3a763669d634f856d59c4d5db04', '0xce707336750cda057676aa545ac1c0c012aec22d3f18072dd361e41b9143cf39', '0x0305d636a2c3d0ee6bfff848c2890a6fada826e5d51f6dad0208199dc07a75fb', '0x2a119f3636f7398b1b2bda721e546d92349f8a103805e6d0f0015beec5bb5dc7', '0xe0f53dfd28b1e43caa7ba4b2414afeb279d13aa25b3622070b1e05ac5d2261c5', '0xda996afa7b9d5f512129ee40074fcfc65be4d48273d35250800255933237e90e', '0xd88f82d32a5e72e4713879cbc76f7490b532c525f5413cef74f6d8dbcba0b6c5']"
0x0B3CF56E7dF3BB3Fb7201fFcD96d279b05DDd2E3,Scoop,161652.0,161652.0,3070,3070,13,13,191,95,['3922c00b-976f-43dd-8e1a-616b686efee1'],['0xa5a91418f85f3207c795a3f10487776b1f97d0a724b1b6b4d8dd42f6ffda7085']
0x0b99C69c2D7A71fb372ACf2756E315A18E5150B1,NFT HOOK,4800.0,43202.0,3887,31182,297,1506,50,214,['785e4a36-2b93-4879-9f61-de92145313b7'],['0x87521fddf81002a8202884517913b6009d64fabf4d93ff33221f4c464a21ae86']
0x0c9E725902f2eeEC063c16d253F38684E3192001,Boregon Trail,74768.0,183331.0,2648,19870,995,6583,75,234,['b6dff2cb-33fa-449a-8434-6ef6ea5624c6'],['0x8aefffac24c21877983910adecda8f9de2a7199ca8d36ac3a3c80670b40b2435']
0x1014f9499259988e35F1C45F6aE6Aa9FBA011E80,fxhash,8095.0,136948.0,3959,49057,1781,20377,61,298,['74f31cd5-dcd5-4ae5-a481-a2b70b2d5200'],['0x622f6f36cee3c57a6c775bceb98df0727e6a0ab91abbc4bc9db445611a67d34d']
0x11a434254794e96d2606f249c6911E94765a5796,SwapBased,116396.0,462387.0,12191,43262,597,2210,329,662,['78f5358d-b614-42ec-a07b-7cad08ac4d9b'],['0x10ebaaad99b899b7f98aa62d6095d129b8a9fe9901f0bafae2f9e294ba710010']
0x12A2455CCa45D8f6d9149F0e996260Ae49EDA8B4,Mode Spray,34.0,148.0,5,18,1,3,0,0,['dcc07c2b-30d8-4aec-86a0-1d492f09d61d'],['0x218bbd346e0e560f68dda9dd6e5e224aa421ac3e209b1b2dd94f47dd47eb596b']
0x1395348Cb0E7b62E9DbaadA079B10A4E6AC26a8F,Ionic,108462.0,772432.0,2755,38607,1262,11846,45,425,"['62fc6280-e66f-4e03-a93f-c04f2b11f383', 'fdf7e73f-40be-436a-8744-41ade2834450']","['0x08b77f02cf073f606c7d8f06b4ea0b7f6623bf33ff9fb3480a7c32946caea942', '0x889354e0b66b0c08a8c25c516b2eaeb767737268e6d00d634b6b55dd49dc9638']"
0x1426FBd146942e153653863cbe633780c17268DA,ImaginAIryNFTs,31.0,31.0,20,20,10,10,0,0,['3464991c-1190-4445-97c3-0ae78521592c'],['0x56bd727483bc9dc466cd4146b63e11946599c9ca8c73c52f898dfdb45c5daec8']
0x16420FC422F1Ae747Cc6BbC7075C466efBA07b4d,Bond,460.0,526.0,75,108,1,1,2,1,['22a0a8ea-0acf-4669-9d8d-d0cfa10e1104'],['0xe3c4817b00bdf6104bb41a3294c83c93e484624f29a6ff53d2c1e30812db5a1a']
0x18C18eFB421B205a77d5cE858eb640059542F6a5,Bitmon ,1424017.0,1424017.0,86939,86939,1,1,2920,1460,['5225cd1b-ea62-411e-afc6-8b0b28164186'],['0xf10d919aa90d5daebe30a6f7bdc0742e6c92188bcdfb4990b6719ea18f23bc51']
0x1b9706227704F49e412ABC9da7Dd7D35aFa60c22,NFTarot,2150.0,2150.0,1540,1540,709,709,18,9,['9b4e49fb-b436-41eb-8cf2-d66f53bab05a'],['0xbcd719fcb192a415bc74db85af5f48d0b887d93685de18c8c96d5927a0b6c439']
0x1d671d1B191323A38490972D58354971E5c1cd2A,Based Bits,4469.0,6367.0,192,294,121,170,49,35,['08868559-3e11-4d15-9ec4-6a589a2d91f2'],['0xb60f9a21fa64b2eade53c6d07224a0ee6ab12e951a5904a79f1805bfe40d395b']
0x1e23166194aB72B70Faf90aA20Adab36607B4c78,NPC Labs,747.0,747.0,92,92,9,9,1,0,['0c682377-2b21-414c-8ae2-51a2aec4fc10'],['0x85b08eccb4e27c55f5a7d08a857ebc705edc72f94fe1f8780ff6e3a4cf1a4f1b']
0x1e4c7ff127B2321eD05c43AF5E1015dFd8885F30,Overtime Markets,207521.0,207593.0,2974,2975,1670,1670,130,65,['3fe23b54-e0a8-4869-9e59-c2d1ef8fa5c7'],['0xbd9c770aee6f312fe71cb2ffd20b9c214d7b0804cf6e109d79a934fe24024c87']
0x1e4c7ff127B2321eD05c43AF5E1015dFd8885F30,Thales Protocol,18435.0,103361.0,2106,14798,87,256,46,136,['4c2bd46d-c518-4798-84f8-27b0bdca3c73'],['0x554c5c35d7eacb5434cb2877aae7fecbe97b0b619bad7286f0d2045dba306196']
0x2055149768d71910aA4125CcBb9fDc46EdeB2436,Quidli,114.0,114.0,17,17,14,14,0,0,['be4c1824-c482-4316-b5c6-706e926061da'],['0xbbd0e79f9e390b86e3d520cef2ddb18ae3b54d67b88cff5fda7c98428cab63a3']
0x205b989c9b8944fC96d526083928D0Fb070D1E57,ParaSwap,2023773.0,3097930.0,48775,92763,6996,14138,1839,1668,['89c36fb6-a079-4b6d-901b-dac01e304291'],['0x3e644ac0d263dcac6cebbc59decb13c83503347cb965caaea91547ac349d1b40']
0x234dC0C407228B56147c56e4a20b89aaEf6b676e,Masks,85743.0,85743.0,16960,16960,15606,15606,434,217,['d4836d83-ab33-40a4-8963-60a0c563b21e'],['0x6c2e0b309f542df71961277554372f09cdc3d97cd8449b3fea61f8f5210d9415']
0x2462B983E444B317C999b85CE3BBa79840D36F76,Degen Name Service,662.0,662.0,21,21,5,5,1,0,['6d5a0660-c0c9-4936-8621-406289645d2b'],['0xef60c3ab6436942a10e9bb0197b2f1e31d7d98be3cd5e0a64f1091fa1857d069']
0x265985d0a57A4339509cd785f854668055924AF5,CC: App Type 8.20.24,24515.0,24515.0,22132,22132,2978,2978,256,128,['1e90433c-90da-444b-a9c0-7f2a50caf423'],['0x87880db0d81f71a8059e74d8e06df42122032d49df64aa0734b210405ebee0b5']
0x26a65cA76E1Bd0E3962DF3795fd160782Db24fc4,WOOFi,148571.0,283894.0,4012,14318,344,1052,64,110,['b27c62f4-d5f7-4b9a-8769-468b5fa4c792'],['0x035cfee33785ec92fc69013923f3cfe989568ef2afefb3c242e764ed3eca16d5']
0x288262DcdF3e2f3dbcb2DcFbF9DCC0D9AdC50f8a,Swaye,554.0,554.0,285,285,2,2,5,2,['bf0f3f7d-e39c-43eb-a546-a0d383a1cae5'],['0x5461ea3cd798d789fa1a74f4901a320a085b45fd7a5ecb424c129850ce06bb4e']
0x300ecEb6f549c14779DdCBD9BdFce4a2B1C7DFaB,Savings-USX $sUSX,25.0,25.0,11,11,1,1,0,0,['07cbabee-44a5-4fb9-96d3-f03d52f3dd37'],['0x1ed337ff96b6daac5e8d778c7d9e57b7910e930307071a9fdb2a07908e47bccb']
0x330875BED67074B0c261Ec147Ab535806E21EE2D,doginme memecoin,177363.0,500631.0,10739,39519,1434,5337,383,690,['d9a17633-b5fc-47c8-a00f-6a0b89dadd67'],['0x0c65af94143bb893fc7fd972e257c6ccdae61bf45f3614764fe53629fa95b3e0']
0x3363b291a21cC692A5e07C9C63E3DF45F135EFcd,Feed,91.0,91.0,8,8,2,2,0,0,['8b32b54d-42e7-4b11-8e97-d2c95a160164'],['0xac18b64f720d4831dfc332ef8b4e938daba62fb8ee44d0c652577aa4ea7d92f0']
0x3363b291a21cC692A5e07C9C63E3DF45F135EFcd,Scry,0.0,12.0,0,2,0,1,0,0,['4b8a828b-14c0-47fb-9688-48706601ebc7'],['0x6d6ec195193fe191b5d8dc4b2554b349fc81aed30625a7fcd637edecd2dee0a7']
0x3363b291a21cC692A5e07C9C63E3DF45F135EFcd,Vault,19.0,19.0,11,11,1,1,0,0,['ceac6653-ea1d-43b8-9e02-8329e5ee2a90'],['0x848b0e7099aa13e60cd4797d8c688146469559d17afc6aaf1f8934347bacda15']
0x35267Fa7083Eb6b22104c1bBB2d25ff402B7072A,LottoPGF,7.0,28086.0,7,233,7,198,0,1,['e889e847-33a4-4363-a002-5770bc036123'],['0x3425b5b62b06bb01c139e2552b598dd093836fac98cbf90942291872c3f49124']
0x357843d6d1ECE85ABA4032EfA31a2e813F519261,Checkin: Location-based “Checkin and Earn” social to connect IRL and onchain,1922.0,1922.0,320,320,310,310,4,2,['649e921b-3f19-4a5a-8d8e-6a42508c2741'],['0xe0b0b7b4c99c68c26a36f68e8bd7dfa524f6331f9a21eedc9e4b515ab86570ef']
0x37A6156e4a6E8B60b2415AF040546cF5e91699bd,Metronome,2.0,27.0,2,4,1,1,0,0,['76e7ae2e-7aa9-4d6b-832a-6a838772da18'],['0x359c4e54a2f3ed496cdaa266791e91fc52b2629586dc9a6260f1757543663dee']
0x37A6156e4a6E8B60b2415AF040546cF5e91699bd,Vesper Finance,3.0,14.0,1,4,1,1,0,0,['6104ece1-68f7-40a9-aeef-723f33e440ce'],['0xdcf5097af0e4e4d37f5b916e91e0a565a388888ad57fda7f6ae1d3d91f1577c2']
0x3EF1b0db4D10d2e3cE06699C0BD4EF0aAf897614,Pairwise,824.0,824.0,414,414,1,1,5,2,['9bf08440-e460-47a9-ad4d-147186967721'],['0xb91d706034a5fcdc061ceb4e3d3d27a6ffa33a675c3080848e4743f45103e5d3']
0x3bEc6a181d6Ef7239F699DAf2fAa5FE3A5f01Edf,Trash NFTs,22.0,280.0,2,16,1,9,0,0,['97eea1a7-803f-4ef0-942a-eb9bb99446d8'],['0x5e4c05651896e3fa1c33ff306eee899855a2028fd9a40de7ceb0453898d37e80']
0x3d4aaFbe86059d17C6263332c560f18C4F1Fec34,Gaslite Drop,45937.0,81157.0,239,502,13,48,9,8,['98dc9e5e-44d2-4c74-85fc-ea192fc2a251'],['0x13737b98846c8b709b9aea871f6daaf644bb067ccb2c3a0e7548b6c2a2a4018a']
0x3fb4920e09493b2bC7e9b7e14EA7585Ca8bAbF21,Songbirdz,4119.0,4209.0,1688,1690,821,821,20,10,['ec336ada-b777-42e2-9878-812a87d7bf13'],['0x4ba009002ca3ae72cf7f0d5b32fb4f62894c6f0e2001d88b8de1ef89cf05c272']
0x41a8709A508f07e6fA33dB0111813C5084fDC50D,Silo Finance,150738.0,150747.0,304,304,1,1,38,19,"['0e554b3f-68d3-4b76-9850-4d7e639bb06d', '2d687960-ac06-4525-86d4-c6f4550eee07', '79ca5360-e99c-4b63-a147-3b9ba74f81ac', '7f3f7eda-5a61-44c8-b8d3-e89fd718c4b3', 'fef42e13-7204-4f1f-a20c-065e6baf2b51']","['0x5bdf3a79131dd1e24811bd81917c3bd08edc511a1081bc25cca32d62f4bf8478', '0x8bea4fa55d0a3a2942c2bfdcd58c2208fd907cf50e7f0348d9b8a8845bbfef03', '0x075525294b6f9562c8bf26b677ed96e1ea8099190fa46b5b028518a9c1955c49', '0xa580959f06f03d5edb6df9ad6f1f8c158d39bc5d1eedd2733ee6b7c8ab351176', '0xb2f8227650914bbdefdf06c6b233868fa0752089683a6c9c771aac7ab0507f39']"
0x44e156CBb4506cee55A96b45D10A77806E012469,Pixotchi,138627.0,188240.0,10898,14307,2188,2435,203,156,['55ea809f-3a8b-4ccf-abbf-4e25374dd239'],['0x6f71cf74f6766352da09cb5028a28a4a3ca7f16e2649333c8e5eabc8e5945f45']
0x45d2Cc0c0a4641079B3203ED0d3B66456a02d4CF,Sushiswap,11.0,20.0,7,12,1,1,0,0,['2fa49154-5fd8-46ea-b594-84491efdc590'],['0x5ad945659d789fa3fd385ac04d0937e1ec9ea78f0f8f1e56562b3e78a431c87b']
0x460464c72E010A805043195c56690347f67BE746,BLOCKLORDS,43837503.0,43837560.0,1219383,1219386,22,22,41855,20927,"['004e7e42-5b96-47fd-a041-a30871fbe11e', '05d53917-0603-43a1-b241-8698bb9280ac', '0d9b31cc-c2ef-41c3-8ba0-dea4a3a37de1', '1039bd70-c8fb-43fa-a01c-d183b08a10c8', '45ca9db5-1b98-4e3a-9999-09f69ec6631c', '49c9b843-5d3d-4dde-98ba-7e001dca5c7f', '532b548b-1e3c-4582-bdc2-f7900a8d1a79', '6d241ba1-8328-41ad-8f3b-712509f5b150', '8185bfc1-5b24-4d67-87f6-3c630da1d34f', 'b76bef3b-9a68-474a-b1ca-3f6a7bc30c2e', 'e453a6bd-98fc-4e91-880f-b7593003ac65', 'ff7d4b80-83b7-4c59-93da-5b2524195dc9']","['0x317bec3ec76c0054e87eb17b9a256fa70d09839b88950a2c5f9f5c39ae8e4453', '0x70250b5e6c38addbea618fb8a35f5e28e9056c2eb36b901630fb866144509821', '0xaa905aeb3574c49b80d95b3e37ab11428c24698b7e009fc8f949538702e697dc', '0x063daf7bfb1f705fc4c05d8c28481d30c1700950f24607fcba4ea70c116bf2ec', '0x1eb735cf7d9466a94f705a702988ab493c663764f57fec7a040e746f7799b725', '0x2a6f2615cc3bcf067c3357b235c51eb2e032cb820d1fe07a35a1b644649eacfa', '0x7b0f18011b9cae4356f71a5401977643bd6b6e81fcff1829d31dfe8f21b7fee6', '0xd1c6d4b89fb1f35c76d6a1bf55f00410c3375c4b49f2c8173f0ffc4b2c359852', '0xb51534be8c82478aada12efe620286540be6cc4e7efa33415a53b75351639098', '0xe7fecd86f570003824c85a00e8f197e0a19a724f4cfe83a1e3baeb85ac24193f', '0x11d01702db51c936b80d9b5b12cc97e072b90d028f52f6df5305012d9d579a6f', '0xeafd055314506c6c000918288a3e93b1011342af4bf4506ce0e265b1bd275684']"
0x48294a067D1bC5a58BCbAB4b3bE329d078D9E1Af,Pin Save,0.0,245.0,0,134,0,15,0,0,['1cda49ae-4a15-4437-a24e-260f4d43cbaa'],['0xac5d57eceb4b55b3f5d112f0685c1e2fda71c1617515a0ce4d5b0dcc0408c645']
0x4A0658bdADEF6CBbF7cB6d55eb7CB684886Fc74B,Safaricaster,131.0,131.0,81,81,72,72,1,0,['f229ae60-0332-47ad-8f82-87ab52e06b68'],['0xf6d7c8dcc61e2f1abd2080975bbe8e383176c78e4dba2dff8dd75c39b50ad284']
0x4A29c8fF7D6669618580A68dc691565B07b19e25,Demo STG Project - Contract - Prelaunch,59.0,361.0,25,95,3,18,0,1,['3ef45361-b5be-4fea-9ca7-841ca479a89f'],['0xcf38187a6cf25b69b23937f4ca107d8c5df144324d08e5c2c2ef2a2d463294a9']
0x4Dd958cA0455BFb231770cD06898894b4c974671,Moshicam,12926.0,12926.0,2,2,1,1,0,0,['ad694136-109e-4227-a214-1329f099aff0'],['0x943f2e4e6a6f4bc854c3906645eec25ff4c0a77fe89fca1c14333e9312d451b0']
0x4E030653a39B3478aDc03d2c7B6F8C45aE685882,SuperBoring,105114.0,105114.0,423,423,159,159,53,26,['29f32cfe-7faa-4d47-829c-440137a7899c'],['0x823a9fd77f25c6d27a8458032f1dfcc374df39d8b32c20b80945e3696e78f51b']
0x4ECfFE726461504516B6B0A93Ab1CE33793E878B,Moonwell,2579831.0,5886208.0,89672,178208,6407,11560,2078,2171,"['05590f4a-c3c7-4135-8217-7405ce448659', '0ef95490-90d0-4931-9a0c-7bcd973f82a7', '155cfc51-23bb-468b-bb26-45dd6eac111b', '15698120-3260-417b-8200-530bc0b32d71', '1f8d61b5-f4fb-4703-9b8f-a1274b0f16e7', '1fcde8c1-3fb8-4fc5-b4cf-90e0ad3848e3', '241553d3-be77-4f3c-88ac-4fb3c8de1d29', '27bba487-35ab-46c8-adbb-5061599b34bb', '292ce6aa-bdf1-4c0c-b58d-f6cab1d8aa31', '4dbeb15f-e0c9-49df-8977-69442ce91adf', '503dca65-d176-4b51-a533-375df03b3659', '5cc0c484-1346-4daa-b0f9-1f6da9630973', '658b26d5-b981-46b5-9e3d-e31f3a9931c2', '73b78ec1-1947-48b8-9692-ed9b08558c27', '81325e14-6362-46d0-a43b-3719e2f75cf7', '8ca75fc4-7798-420e-b154-1df4b4037683', '90db12ec-ba0c-4d85-a2d0-4c207ddc2092', '950f76e4-a1b5-43c7-be99-a4f528df35a8', '988ca7ca-5a18-442d-8e3e-7adf4d2ba180', '9d61e595-3a9b-4f0e-bd8f-26032f0cafcb', 'ab050afe-be92-45c3-820a-ae025d5d1a7f', 'af6c9bee-bd63-4b76-aafb-3fbad419bb6f', 'cc61ab0d-2bd3-412b-8340-e85ac7184667', 'de87f1e1-6b26-484e-8289-74bc2126137f', 'e0a2e6ae-d4f7-4dfc-97ba-e68593163fec', 'ebad931b-5b90-408d-93aa-174ba1f0a460', 'f1fa7bc2-07fe-41cd-a756-d50921a56052', 'fbc32b1d-0388-4b75-967d-18c53892534e', 'fc68d66e-7157-45b0-acf2-d81611d5630c']","['0xdaa3cf5970c42f63dd99b40f03615b041829d84925d496d0d46d2a9931e11db3', '0xb235fdd4e5d29e7e70ec8eb2caa173e369771989d65954ce2e30a16632766b2b', '0x517471d20d004b096c792c7135f98dad27365b91ec387a99fccd548f554e180b', '0x4dc78ff5e1253f0fada6aed10a10a735c212c5fe30fa0e959dd9be3d8807ea5a', '0x07fb01622cceb523ff4067241d4acd826b1bcda500233753aac473644c5a0083', '0xf5095d6a4b8df4f906e32c9cad40e561f833a4244283003dda5117c9feeb7e0c', '0x205c47387983a467c6d85e278f9fb5b5af3b494556d7169e1b363f82121bb211', '0xc5ac77494d0691243623237fa2050394294863e42908a54fbab68d5fd873ccfd', '0xe5b312f749d7dd47667e6c69fffbdabdd1444f98208f0b09a9ac43bc8ea7d82e', '0x7613b8da263218ffb502b10d3f124b34d9c6a929be8e325518d80b3ebb3bcf57', '0x7cf0c65713160f965f394d329bb6974e5c941ee9171a261f52eb8c81f4f90d59', '0x907053891ff7bf8b24c240ba7c715a59f9aa4422fee9ae47a7dbb43fbd90481e', '0x00ed76b55c47e9bb3ce0ee290dc64270a666dfbfaa17558367e255ac4c45eacf', '0x3ee086f05454f554752e5f97debfc3a1081e4d6e5a7201bc2cb5019ec68fd0a2', '0xbdbb7d3e410586c7840905bb0f3abfb88492f50557e252cc42f9fef4ba1596a1', '0xa507bd64179865870232d810466480a0a3ebcf44b84566fa6abf7fdaee8c545e', '0x3c4a5545a9bdc843bf8510cb2f77d269273065c9177b9732b96034b58e38bdbe', '0x3a8630a9dbdc28a152a3b882657b3b506836b36b28449bbda56f7d756e763228', '0x315d628de0c306f4138c06e451dabce0299624c842a53c5cef7151b0825f9d2c', '0x7790b98f6b2164539b97eb94da376b9efe31c95d133519bc178e42452c3b16a1', '0xc0036da3ccfe7b4f85300aee27b1e25b6c1c86d2461831d8d3fef94da5e7944e', '0x1f04bcebbec9d3cde8e0cebd06956341ae8a2b687077c6cc3646ce850ddcc98e', '0x8edd7401130a0d061a80e44c15da4e9ed562441c5ebfc60ac141c1237e9425e5', '0xb1fb379d33e27c289e85ca9c21aa79275e2afa496e99418e3477da4d3af67b0a', '0x835fcc0799a21d71d7ea9a2207e172b766a7270ab64cdab382328902c78853f8', '0x52177cd93b57786bd2a01f105fd351d9fb7d0ea53daea5336b8a81db1848a516', '0xd9a69a50cc6f5f85df6929d5254ad2e7dad7b2dccc841a0d2963277b06bac1c3', '0xf9b4897a6aa72f6b17dd6021e36fe8fb521d61c6ceaf2520219a6971f250befc', '0x247e61613bbc3036de8d9f7598799674f68785efec579966497d3ce0958742c3']"
0x4a6894Dd556fab996f8D50b521f900CAEedC168e,Test Project,1.0,1.0,2,2,2,2,0,0,['b88ce9ac-bb8d-4c74-be06-74a3a9a821a6'],['0x7dfa73e6f3aaece7049484dd01ea6f78f526e8cc8cac474064870f83a9b7f79d']
0x4fd9D0eE6D6564E80A9Ee00c0163fC952d0A45Ed,Light,6.0,10.0,3,6,2,2,0,0,['7c519bb4-5e06-403d-92ff-e713860d2c8c'],['0xc03fee1b46703ee64fc631deacec461b1e93a2ad97a921b6a4e7e8d6825da53e']
0x5083602Bc796Ff1435769a4C66AFD482a4e6E08A,dHEDGE,62298.0,76400.0,196,369,2,6,22,21,['3df2cd3b-06f9-42d3-8a5f-a8e5b377a127'],['0x5322710352279831e0c92adfd10ac29b2a41eb8444081b03fc7e8f89785ae76a']
0x5083602Bc796Ff1435769a4C66AFD482a4e6E08A,dHEDGE Base,13746.0,17213.0,109,163,3,5,9,7,['e1020776-ad77-4f46-9736-180038ff0896'],['0xdfebc4fe08d758496c2d33d1b06b4f814de6c9e985570bfb5285075652ddaae4']
0x512b55b00d744fC2eDB8474f223a7498c3e5a7ce,Coop Records Music,2.0,208.0,2,119,2,94,0,0,['724e08e7-f5dd-4dcd-bb4f-cf50045c4d53'],['0x3e0068679911d0e4bfdfec9b04735997acf9eb7b473b33148f0f9c3446a0feaa']
0x5183E0203858aa3E3bc3A7D9cb41875a4c0A6216,Team Super Onchain ,0.0,40.0,0,3,0,3,0,0,"['430a1b78-4731-4576-a59d-1340e59a48e9', 'd5ab9b46-0fa7-4fc7-a525-be40da7d597d']","['0x5c199645abbac423d4e687e478f4ce4a2748cce938ec10e990ce4954d5d7ce4b', '0x3dbc46656aba05f96857e02efa6aed9ced561b90e84d92010228b8c3db5efbb4']"
0x56eeD2aa6DF7da7FD721629a99f3890E814167DB,Sturdy,4079.0,33772.0,2461,7756,878,2358,35,84,['480aae5a-3e1b-4b9e-a8e8-3a06a47f78af'],['0x9cf4c1fee161c5a9830a5b5914ba9ad639a981dd378e10bcfe07cf49fd1b0d79']
0x5D06A3EDC921B5F69bE1D21b66A5160C3b5e2856,Comet Protocol,3.0,57.0,2,43,1,12,0,0,['96eacee2-22ed-498e-9423-3ed4a545c1b1'],['0x94314f5c3aa46e9462a035f1547fb1decc0bc7375c9b5894eebff4ac548cbc87']
0x5c54560B6da16dCEdFAeF1d9118c547ED2F373eC,Toros (Base),9149.0,9402.0,6507,6582,1691,1693,94,48,['11c708c3-7202-47ef-83eb-93128333efea'],['0x9d3534d8a4cb7e1eb7369ab070666bcb13eb0e4f7f4368d8361f0180c9cab5dd']
0x5c54560B6da16dCEdFAeF1d9118c547ED2F373eC,Toros (Optimism),48375.0,52060.0,4593,5539,158,338,283,157,['b0de8ea4-0efe-4cd0-95be-d3fd697b8986'],['0x1f13d386102841ed0fdbf59abdef02b9cf585af9fe1f78c86f0e828db2dfaad8']
0x5f97Cf9DD2cb7b53C47f6b1c26Ab4Bd143325d45,Onchain Mecha,44.0,44.0,2,2,1,1,0,0,['1dd6cb56-dfe3-4082-a6d0-1531d1f902e3'],['0x0fedd2abc236715f83f51743617fc00af12f6c1b6c4d6a15996b7f99ce857cc0']
0x667AEf1bf93f80eCd0Ea83283e79066839698337,Let's Get HAI,45150.0,78376.0,287,808,1,1,12,14,['4de4462a-f27c-40ff-aeb6-01c2f1bbd3b0'],['0x5ad7a63e54232e41891adfb3df1b97dcd79a8f79e88010ef5f132c5cf4394da8']
0x68E08371d1D0311b7c81961c431D71F71a94dd1a,Onchain Affiliates,334.0,334.0,329,329,316,316,3,1,['67209e62-be17-43ad-9259-b8cd4a8ae1b2'],['0xf5a7d6bc6d5cb1ad009a7832f9a770d241a52a3cf9e566f8542167e18e275a79']
0x6A08A2b9C30174506bF4922d0C580995136c762D,KRASH WORLD: DA GAME PASS,48.0,48.0,3,3,2,2,0,0,['00df8f90-6f06-4b92-8ed9-13f3fbe8cbcf'],['0xe9c2ab680cf8be76833c5d8daff5164c992f720e7ea9bbf6f499ae43e31d8648']
0x6A08A2b9C30174506bF4922d0C580995136c762D,PSILOCYBIN,305.0,305.0,273,273,124,124,3,1,['44cceb66-8501-40b7-b977-b9aecf4d4b3b'],['0xb30455ce17e21c7d7ae3969e6c77a2837c84992444d93a8b76944cca06ad1a03']
0x6CeBc0bBc501d73Fe71D9fe3063fA22d1B17f3f4,PokPok Protocol,4512.0,4512.0,61,61,19,19,3,1,['5df30ae5-bda9-4799-998f-a82e794396d9'],['0xc436974c9c894ea957d05755ff99f31cfa8a3386d4f7cc69bf54ee820e966db3']
0x6E23873AB8dD6Fb4823dF8A92D43643Fff537684,BasedChad,9051.0,49158.0,1329,8860,147,1202,30,106,['fdb1b477-97c1-40a3-8fba-8cdcd1db580b'],['0x20bcd145876dbe5b71ea89ac59867d4d077c3f37f9d89c5b88921f56e8b70737']
0x6a2E16EA3a608E8D697B3fc0f59d0012A76901e4,Balancer,4892831.0,10674715.0,40466,319424,6292,28431,1136,2662,"['0a111b32-b39c-4f9e-8e2c-52452c31016f', '36037695-465b-46bf-8af8-917d96a2d176', '9bdddd91-6261-4fe4-acc6-9b16acfbda38', 'bc122237-96a4-48b9-a568-acd523b799cb', 'd8a47ba1-e10c-4499-80f1-17694ed786b1']","['0xc810d42226b179e1228c923b2fea677ba862ac4fdc606c503e7119637fc0f425', '0xfd4997f0289db4bdf38939a823c839242430e5182b332b171aee457abcb7d5ea', '0x04d0e0e8a4b25a2a5e0dc1b952d5564c77489f3647a68dd805d71af03434e2f4', '0x234e05da8dd03617241d37b68b7a5e96ffad59159e52f092c34d03b025836de9', '0xbf7fa5f2141df1096f44f4f52e2e5e4ac4c66f30202e8bb82070ea9db801f52c']"
0x6bAFF8A3449cc2E196F4b873f49e03E09345B1E1,Web3 Hackers Collective,0.0,12.0,0,10,0,3,0,0,['19349c4c-28d9-4ee0-9596-f5b0a8210a49'],['0x21bb26b78e8e729ad936818ac474b80a14a5618265cc095b10cf1dfb3fd9da15']
0x6cfbF06E8b6612B39333eA7c230208D1d178278d,Another World,57.0,142.0,3,5,2,2,0,0,['3d669a90-f377-4e3b-91f0-8d0818d5f1f3'],['0xc98e475c2d6d444d92c9802ef4f7ef7a2bb2e98ea9783e5d677ad481af1f6f21']
0x6d9fFaede2c6CD9bb48becE230ad589e0E0D981c,herocast,267764.0,511853.0,321,520,135,208,14,15,['1e96baa9-afe3-429c-a3e0-ce88fe2a3d1c'],['0xca1d969acf679ada68110f65ada056a5e9854f23f23df8a6aaa864261f0d29ed']
0x6f1130E4b96C681e2721667DDfFcA99dD6824a2d,Kim Exchange,4017.0,64179.0,2531,35581,869,11356,29,249,['3ea994a4-c20a-4849-8b72-5b0c33c12b73'],['0x48b619e46c22649135d2f0fd1aa896bbd4b953b43a4bd75c4285bbf63720f75f']
0x702ba46435D1E55B18440100BC81EB055574875e,Bario Entertainment System,3630.0,3630.0,584,584,61,61,9,4,['12aef6c3-f681-4483-80be-d754b7f1990a'],['0xfca117217425e7798ae92c9a0e3039a6f659d3a1435cd1f3c277006c7b1d752e']
0x704CF202792341d79A9Fd6DD97046aa7eF3F4319,Automod,53.0,416.0,35,127,3,11,0,1,['8de485fb-2822-4eac-b6e1-a064604317d1'],['0xdf5cbcfa0d94e9ba9b42d1172103778189cd7c2e0d04c493b4c97a3dd5cc8584']
0x704CF202792341d79A9Fd6DD97046aa7eF3F4319,Glass,53.0,416.0,35,127,3,11,0,1,['b81130c1-7f80-46f2-a26e-dfa4fcc1ce7d'],['0x7facd3e604b4a4df20c8cca4424355f5087f469486f03950c4fa49a39939819c']
0x73f6F1eD2B4246Aa5313abD8799164F632E4409C,Sunnypunx,47.0,56.0,15,22,11,16,0,0,['63313238-bd94-43ab-b981-b9e778917ad2'],['0x3c4c4c2e937bdd91548bdf1ab1920f2b004acb15bcb598416da933242bd5f5b8']
0x75C83356987c8d813829D9FBb5DE504b547750A6,Based Bodega,374.0,1029.0,74,157,34,65,4,5,['2243495c-9a80-4741-9b5c-effae2ec39f5'],['0xb17cb8110fe341590bb7b30c1bad79771bd6642afe602298fa6c5851afd4e550']
0x75F2Ef654919CA7fd03E73BfDF60b9460e5cDE8D,Charged Particles - Web3 Packs,65.0,65.0,23,23,11,11,0,0,['5f081f0e-9834-449a-b748-fa86bcfd08c7'],['0x6839d3b0a2a3b6d47aec2818eb09792d474d2a7ff6a358ac999b3e87cd80b0ae']
0x7639b96593B2E34F27Ee57f4B1583c4b33dd9679,Smellcheckmate,37.0,37.0,32,32,30,30,0,0,['c4d583a8-91fc-424e-861f-f995e976f58d'],['0x964f36b4b733d6edbbf35a617ff95f0e2abf387269e0308c818fce49d17735f8']
0x76a71d7D72d746B20187461baCE98806ebBa652f,BerryLab,129.0,129.0,106,106,79,79,1,0,['5523b0e7-3038-46cc-9218-5f5e52042b14'],['0x8d803dc422901f644f415d180794a729538e68886631339cea0d39479e2b7a70']
0x777c47498b42dbe449fB4cB810871A46cD777777,Based Onchain Dinos,260.0,1612.0,74,486,30,176,1,4,['088667fe-da88-4c9d-a185-b48ae63d48ea'],['0x37322fa0932312fdb004fba3cc2dbccdbf2cb7a5f6639093ce8f68974b861660']
0x777c47498b42dbe449fB4cB810871A46cD777777,Onchain Blobs - Randomly generated onchain blobs minted via a Farcaster frame,49.0,4210.0,46,2915,34,2037,0,18,['c2c5a003-7424-41af-8ad5-6873be413eaf'],['0x348b4e37ed74cc6a5fcb7fdd58fdc84e115a74e1f9ebb1ddc334bb155dd2443a']
0x7A254a1271f338995d4768C5066508B1b0946aA8,Snickerdoodle,267609.0,270714.0,18989,19140,14228,14308,434,220,['951cae03-ee9e-4408-8e5e-203d97be52e9'],['0xdd11c5d6f935ec24a5ba4b9566deb5dd38dc478c95c4c6d8d5b7d39ede96f20c']
0x7aA49f55A538586764b65a0C4C7e1D8C6243C027,SynFutures,3468707.0,3468707.0,85865,85865,133,133,2119,1059,['223128bf-802d-40f8-9c33-25f88a114c7e'],['0x48fa9bdbcf60438eae9fa452231686b4e8eea87271848d44e6d7d8530d429399']
0x812EC7e3f898F3aCAC1e366694d4787657208378,SwanSwap,14.0,14.0,1,1,1,1,0,0,['cffd93db-2896-48f4-a6aa-a288209e05ba'],['0xdd1d9a23eecf137e4ecd25330448d6f8137a859d603b1a9b62a8a2de42b0cabb']
0x8136Efbaf75D7b13F033573666f393d65Da35953,Polynomial Trade,1155.0,1155.0,2,2,1,1,0,0,['dcbaaa8b-e7da-48a1-a5fc-8ee55f4e7650'],['0xa4c99f2bbff893ca960a001ffa038851b7bc89ee2964fdb2e48f59e33f79e1e4']
0x823c6115651D915614EB8d9f899d6d1FA939936D,$BDOOGS,10.0,10.0,7,7,3,3,0,0,['52af194c-b618-47a2-9a64-61c27a21d16b'],['0x73e61d0cde9f5d88d430f7b6315418dd8c5419c161bec32c0d35fdb302a5199d']
0x839d36595175E1F678110d52D8265a2FEa9607bA,TLX,0.0,434.0,0,418,0,100,0,2,['ca0f8386-dd66-4486-8a50-060e2beb29aa'],['0xc75efc0592ffc51b8a354f712218e3ce0117a5a1f77ee8d619223fbe566fcfa7']
0x842dff65E92cAEcc462D92FcE91ee565dD22c2C9,Bend,610.0,856.0,4,5,1,2,0,0,['dda6e3ea-38b3-44e8-ae16-2383d8918203'],['0xc4e9df81c79b30af1ab23e19250dba8b6190b06aab5bc4c0518e4b24d89e4e69']
0x84EC34a8b64e9A40248599fe0f8afA9d66742Fe0,Air3,3156.0,3156.0,2168,2168,328,328,27,13,['795a96c7-4d7e-4c58-8958-aad52d6a8f12'],['0x6f5b1aca46cd8eed3035a93a800f6d0b25940a0d498c61a0b51e66d9a19e49eb']
0x89213f11E4A356d450Ab89A876F4c1cb5B8996DA,Privy,83.0,124.0,31,63,7,14,0,0,['97a50e6a-18df-4572-bcb5-235b63f7e256'],['0xc0c5f914d4d70001da88023ad94cdf5db4838821bba391f2e87dd1d2106794e1']
0x8d17B248525EDB99cc36c4D458871aDC8B025cD0,Dragon Academy,11.0,11.0,10,10,5,5,0,0,['d43a073e-a744-43a7-804c-3e1c402c2c9a'],['0x4bb4a4c87b8e7c08fbdde8bb8c18b6cbcad3435160ee94afa4f209cae0fec0df']
0x8dA48e5846c06B558970ACd42EDc7Da8799481E4,WebHash.com,598.0,1563.0,271,481,59,145,3,3,['d4a2d1b2-ae53-4e4a-a860-8fcbffb48351'],['0xc2287cefb381697388d9394dfa8ad75ecfe8c0312d32fdab45816f739851afe2']
0x908f23Be36C2447db79Df2aE3A8A21c079217546,AlfaFrens,1191.0,23174.0,795,15395,1,4,9,86,['62729a7e-c90a-4494-8391-3646724a2fce'],['0xa79a65136c580bb49a75aad69ce3f59cbf7dec265a2ea9a1f9c3e15d278ded24']
0x92caBFc81734bf827B037065076eF8C78AcBd12F,Merkl,40786.0,45126.0,11756,12095,3867,3897,399,217,['76a5ab6c-a252-4c73-90c9-cff05b85a2b1'],['0x90974c075f68d4a52f6a871f68fbbf89db8d1316478ef014502d75e31a10bfa7']
0x963D564CA6377Ee5581eE6204A13184bb887bfc8,motoDEX,1802.0,7826.0,1285,4678,380,1303,15,32,"['2625454f-6714-4b8f-bdda-31b886e25702', '8dcfac3e-f424-4589-9f63-ac08d3783d0a']","['0x46dae7f05ee834c0426a0f78c1824427138237238d2efbfa7848017d442aa45b', '0xdfa426e73267f494cbfd6abe951131c7ad2787d218fb83ca1de30ea9faa7b7bd']"
0x974dD3B4e5E00BC3117Fbba15E521B6B5aFC151C,BSX,45764.0,58333.0,130,1032,30,154,3,9,['74068a98-86e1-412c-8e44-c3602d55b284'],['0x45ab72b10121f2ff83e40659a76b5757cac5aecb9a1789dd82e1bb571ddaf993']
0x980Cd99311f3b3264f5dfdCE33D204A8d6d492E4,Mint Club,38667.0,177399.0,3932,22458,392,2437,96,209,['88548564-6deb-42dc-bf2b-ba00ebdc2dda'],['0x22d4be26920cf736ae46adb01631489f17c9bcd8d5c8c4623fb0137055e98f45']
0x980F5aC0Fe183479B87f78E7892f8002fB9D5401,AI Frames Creator,191.0,6531.0,1,2,1,1,0,0,['af197310-d16f-4b6d-8b14-6c18a60ef145'],['0x4fcc8cc17faba5ea06dd638ca6a9e78bc9269e8c52ac5f0ad715f0cbfb9ac29c']
0x984195f93DB193EDB0023F321Fd1a4e2278c43f3,Gambit Finance,73842.0,73842.0,384,384,61,61,45,22,['1c8d19aa-789f-4a52-a624-ee7bda2c885a'],['0xd28af45621b0a6d294d7213fd13df7c72b688c853606570bc167401753c7c2d8']
0x997b0CcEd542b6d2A7e0Bae5649aFd9d0861CB4e,far.quest - Farcaster Super App,24321.0,62655.0,16445,43557,11744,29310,205,280,['2963e6a6-0d53-47b8-b239-f40182f7746c'],['0x359879438b4143f21330f26a7e319cbf1fd25a7821a811f1bef11d16bf5931a0']
0x99999990D598B918799f38163204Bbc30611B6b6,onchain gaias,1.0,27889.0,1,484,1,439,0,4,['1018d789-bf64-4cd6-90dc-9785a9d0d6bb'],['0xed8adc4044b316aa55b01f1dedb7965ab8eaf4dad01970419ab7e54cd838ba22']
0x99Fc221482ca78664d0288FfC6531cb6dfEB0c5a,Da Performers,9.0,48.0,6,9,5,6,0,0,['ad7d7772-20a5-4786-b34a-3df2cdbe2ff3'],['0xeffd91df29e17928649471486715820f5899d5cfeddea47b4b8fe7c86ce29fe9']
0x9A1d17c82b8FdD83aB3004bEd20C44d3b0131C0b,Lizard,844802.0,863075.0,1198,1398,88,91,22,14,['4d172a4b-7c8e-40b6-84f6-475906c42d67'],['0x93ceb798b37c8ab54de995c1141d332a8e3b418bb5c1a8291a49622ecf0bafde']
0x9D63038e7f74bc089eb38e61Be8Da937918900D6,Amazing Hunt,1179.0,1179.0,3,3,1,1,0,0,['657d3052-63b9-499a-8898-ee74a2d4c0e7'],['0x45472ea9dbb575d6ba6c9c45133734c77138e6188f146c846cb88584d3f47be8']
0x9D63038e7f74bc089eb38e61Be8Da937918900D6,Bored Town,0.0,2227.0,0,2219,0,981,0,12,['0674ed13-3026-4dad-9565-b522a40c8eff'],['0xe25b89cad112f24e3b66187ddb5332d752673c5b8bb35d267479a6854b9fbe91']
0x9F36A6bB398118bdCD5B1bC3343D8FEB6d7d02B9,PoolTogether,22057.0,25614.0,623,651,76,83,84,50,['e9aa7925-c471-4c63-961a-c35abfe20159'],['0x17f675da93901be4983b154ac47d1a840c681fe752fb136e0b33a06a0198ff77']
0x9b7816f3eb2d35A24edD9BB4F33f05E9a2332494,Yunan90,179.0,822.0,79,301,1,3,1,3,['49ee3492-1af1-41e2-8ef2-f5f388470d46'],['0x4b3ddc41c068a349620d8d6ffd78775ee4ca727a88da68d44c5b9ce43ad31085']
0x9d8a155f084741fF4C69c3B1272b5b30A8373d1b,Supa,7.0,799.0,4,91,4,30,0,1,['6b6c1870-6136-488d-a8bb-d55a65a3f69a'],['0x1c519b49666922e37f6bce0c8c36898c6c2860fcb5e58256f5562a0d9bf76180']
0x9dE1C45449258a21B51fe69eB6cef1Fd71E459a4,BUZZAR,209.0,333.0,68,77,2,3,2,1,['7f2d11e3-2b97-4e36-b732-ac349ed2f1c7'],['0x4f2da8a68aa36500bbdfaacc8786b15dee320c5f4f3ed47946fbfe8bccffa2ee']
0x9ff6d5452a0847949683F97E868d706254a05007,Definitive Finance,84544.0,192280.0,170,515,1,1,9,14,['6a11ad77-d1d4-47ce-ba2f-d89cf853fd00'],['0x39a329cd37242d359199a969d8227415be0cfdc4699d8e941b3aedfd7aaa0283']
0xA582360DA4ae1fBb912C975fcce1A0C0e2af91e8,Surreal,119.0,266.0,69,154,41,69,1,1,['e50d1f7e-57e9-4d5c-8e71-ec627032d4b0'],['0xcaa6b1c0b27b369f276d8e504027dd23668e8b3d7c8f84dac86dc3c82e33a08b']
0xA5D224B43EAB837aa2Ee9C6Ed727f1613f301A5E,Flappycaster,53.0,53.0,52,52,48,48,0,0,['30e2ef09-65f0-49de-9f98-6625a67353e4'],['0x6f9c9d2c4b2ddde9249fdea2b9f81983ca5734e634791471aa12706313803c62']
0xA65eEf5D0566Ef2ED242d8719111e3116333278d,Guild.xyz,5559.0,14357.0,5327,13220,2697,6703,60,77,['12bacdd4-2eb0-485f-8c25-9380622e3234'],['0x0ad0d151604b5cb1c975cb5864deb7fdbebb493e1696bca86d1228424f16a5d8']
0xA89946F00052Bc385B3121b45420316a7cE20E60,5050IO,153.0,153.0,12,12,4,4,0,0,['9dbc583f-6672-48cd-9ddc-90d35e1a9474'],['0xc6ef0dcb93e384cec4e159c7c53e218455eddb16c00d6e12cf525811a4debcf8']
0xA89946F00052Bc385B3121b45420316a7cE20E60,HOMES,52.0,8254.0,44,1385,15,381,0,12,['f9538d16-5991-4972-b240-9a341c26bb87'],['0x6f2c93f9de024051448c58b806f38f01bf0e235f729550be2a1f1d434ea5cd50']
0xAa66fC4433DFD254F05A720A8c8a2f1F2fbDCB58,baby Dragon,0.0,379.0,0,290,0,130,0,1,['9a65dbec-2fb8-4889-9ef3-e1e2bbef14d4'],['0x0f236979363275877d46ddccc57514af5a8cc8a9ee48b6c9d089e32aaa57adba']
0xB1dD2Fdb023cB54b7cc2a0f5D9e8d47a9F7723ce,BMX,205117.0,380762.0,5857,9291,935,1658,212,194,"['094ee083-01d1-41f8-81c6-3fe33232a8c7', '5569f166-7c5c-4cdf-a11b-5a4280086a5a', '6a1f5979-e9ab-4971-a7ec-80ce58ad15d6', '78b87055-ab6e-4fea-8808-d78eaadc2d3f', '8e44e5b4-87ae-4d63-96eb-b0849eb394ad', '954f07a8-715d-415f-a211-0602eaeac7d2', 'fb221b04-388b-4bb2-be7b-fc95dfc13e51']","['0x4696013bff7df31b0e40bf119be622f5aa0fbe2300a828194b702288033cd451', '0xde7db732ed26bc770f6ae36ecad6fb957929fe0ed2c792443ea9376edfc8220b', '0xa99639686c0f0940d0c771c5b261f5fc15e9cd876fd7c4b9cafe7c044c2a3f7c', '0xdbcc15eb0910bd8101025b551a96bbfc973f47a316cdd2526627b6106484d97e', '0x590f842103f74ee6d2a3b000d56b355aa0d2e00b887fc0cb1b78890d94ae6cee', '0x5ee2b717e9519ca426cef3af09e8a0e57db33d6d94075c4dfae8221b2398bdf4', '0x9087b55eb79a339690e36f1ca0cc097a057d6baf1950521b3b0009903421de60']"
0xB1dD2Fdb023cB54b7cc2a0f5D9e8d47a9F7723ce,BMX by Morphex,12148.0,29649.0,130,269,11,42,15,16,['a622ebca-d695-487e-adc9-931372135973'],['0x03d6f2dc5dcdd3a1bb806a2fcbb42dd7babb1a1482fc94a54caec25a057b2044']
0xB819Fd6050D6225785D4D688971b3bF4ACB45252,XO - AI-powered Matchmaking Protocol,3445753.0,4506896.0,61157,71549,1,1,5356,3492,['87826993-859c-4365-92f2-39e2032e52ea'],['0x2e660307819dcbbb190be3f0bc4452f856aafbada1e565270c1745fff3f41c0c']
0xB9e0caEA4304b4716f33Cbe08f2Cb6c34b5440cb,Flat Money,1906.0,2727.0,221,267,16,28,5,3,['b85791b4-89d0-4eb5-89a6-a3e5f2e5e30c'],['0x54db8a5fe4f0d0e329fde781aad7634724372c1c6718a5bed3545fd4e16ccbf1']
0xBc57373c9B99524f6300664e2602A0427A9ec0db,Degenfans gated frames,23.0,23.0,17,17,16,16,0,0,['c6bad58d-bae9-443d-baa4-40f2548a7e3c'],['0x1d3fb02fc98edace955d3e68b2f9ffac457cb869fa8b8a5cd6e3eb388ccd6691']
0xC4FC57Dedd2463314A3fD2DBadB86B4404C257e5,Fractal Visions,594.0,1179.0,18,252,9,42,0,2,"['0c01f116-4cbb-4123-90a7-b8067be7907a', '919641ca-f775-4c03-bf27-100fb0576295']","['0x5547a25b77b51432b373e3591374261bcbae40c395edebed622827aad5444ba6', '0x0be87123e7beea0753a6097563c4c221d3d9418deb8e3167be1ce58847754852']"
0xC925bD0E839E8e22A7DDEbe7f4C21b187deeC358,BUILD,236731.0,388406.0,50356,61979,35435,39608,871,655,['9833b9ba-50c0-4119-a480-1815f0b8fd3f'],['0x507d7acd03d587604a56ce4f4b83cbf41612b6ba4513e5d92b034a9538fdeb2d']
0xC925bD0E839E8e22A7DDEbe7f4C21b187deeC358,Talent Protocol,18659.0,18659.0,2,2,1,1,0,0,['f3a42626-c33e-40c6-bea0-fbfc53aa402a'],['0xefd8d5baf37027cfd1fcd74ebea69587a035eab77a1f1c88ba7a07905408181e']
0xC96bC5441A1212BF268c4116430ea241102898b5,Virtuals Protocol,221.0,1939.0,1,3,1,1,0,0,['d8a86cb4-15a9-46b8-a746-9319c9104951'],['0x705e832fb7bef90d1587e3774173198c54b426f533e6dcce091edabff955234d']
0xCFFbda2841Ef95DF3e977982eCc55429B8D82eB5,Tasseo,193.0,193.0,92,92,47,47,1,0,['7c4ccb00-8e0d-4b6f-8f95-befe7d702d10'],['0x36e5b793f706ded8381821a4c2e91a7998fb95390ccaf242eeb630c130997247']
0xD0BFb40F057322FF734a75CBE2F79b9E5C7E4cB3,Glo Dollar,6217.0,12213.0,927,1982,258,376,24,26,['ecf60edd-bb88-415f-97b2-7c612897ebe0'],['0x533107f3ec31787dc080089041243425d8a4494127dc531e022c59d3494c1ef5']
0xD50A234082C1CEa12A7A9DD6F37a85fcc55ED459,RubyScore,277499.0,575960.0,28821,77125,6314,11356,1100,1587,"['02439dc9-9d63-4ba9-a0b0-b995251586ed', '44f074aa-6ccd-4f72-be91-92c406f0bdca', '5f969f7d-8725-48d9-9249-e7655827caba', '860b6f97-d7d3-4da6-85f0-3d83d94a8256', 'cbd87620-2028-4bc0-a2a2-d915bb2454b9']","['0x7cad4dfbc56498a4209cdfed96087020fc56cc5775451aed09d4b3630ced06ab', '0x2626a3bb21338146d40d74fc8d16c9115ea5d9a947ceb30eb8f269927377c8a7', '0xc9aa9e1c2bf5b482a9cc8b1ae9fc41ffc351157421e9c6123fbf0e4e0bc1e1c6', '0x8f8112aa49a404804b82103504eb50ac0d8f345f6913b084750e42ed0ceb14e5', '0xb482e68a329f962ffe8b2663c243fea1268ae9715aafbbeeb20faf097bdf2c81']"
0xDB15fcEa49836C09672DeBf8EF53FFe4400cE377,Ironclad Finance,33317.0,274467.0,5656,30615,2624,12027,104,359,['0faedca5-9e1f-48c5-817e-c21defb36379'],['0xd79e0e068eef10ef749fdfcf4ad1086c67fbac700b967fc738e7176936f1caaf']
0xE4EE538019673501F4B75de5aF5CC073Ec0A1487,0x,1543115.0,2811827.0,154685,361243,10746,28663,3984,5434,['89eb0a1c-36f6-4455-af98-c822064425bb'],['0x66076854e0f9ce49078c76ee39e2e9fae61a8526f406961eb85a8bba931d7dab']
0xEAF56cF68C38281252E49b460c5a66925991475B,L2Pass,11036.0,394502.0,3425,105566,342,4133,45,914,"['25ed3a90-eaff-43c3-b108-e4203e6b748b', '670de93f-62ec-4b06-b88b-682b641c4e06', '9eabb839-0400-443c-bc8f-9870d8ede259', 'afdbf54a-2292-4771-b8a5-8d6f2df3fe8d', 'ef1a8dd7-8708-4b0d-87a5-2560df048a80', 'f62ec95e-b0ff-4aa6-a255-8b706700dc36']","['0xb3d421e3471f086da6af134256e4a0bc9b9bbba3290ab370f44c06b32de92518', '0x63c659c656d2fd865c7c4a19c74be68697c915f876a45bc893af5931239040df', '0xcfbcf9c8495b5d5f6dbd187ea7ce28510d69ea3d36c6c335e532fd3561f08b87', '0xc444f3c7685dee914bf09ebc7c180027f06dccbd5d9095a531c4313702b0c50f', '0xc48fec0fa55551f7c91be083adf73f580bfab782d67558ad11fa7f5416ce558c', '0x7fce3b37214a2b78fd596393f02e80b3784af8d4ecaf085a340f188e476fde29']"
0xEdDeb6f119cbFE24741a6333Dc69BffFCBD1dCA1,Party.app + Party Protocol,13028.0,53533.0,6827,23579,1119,6940,90,192,['4d3333d7-8b36-44e6-b69d-79cef9768c7a'],['0xd0876ae8b9f9678e1ea2c68ba4d9d836f9d5fb72e580c6a31ba69c89e8f5f10f']
0xEe565CC94e9AD1552Ad10f106f7D27c007f8b4CC,Morpho ,353999.0,354053.0,7667,7670,639,640,161,81,['189b3d91-0518-4999-90a4-a78fb3ca8b71'],['0x236758e5fdcfd60ad117d9e985a53ac06c8153fe844d362dd9a2ea4e107bc2a1']
0xEfCCa47CD11D4b1637e4d52a84Ed5dafFAd38F04,Beefy,67148.0,134230.0,28088,46777,10082,14694,542,564,"['05a11f31-2eea-4398-99bd-0d0dadfa1b80', '05b1472f-c1ae-4d15-b416-a412ea8fa632', '08b50257-21cf-4c92-bc52-e57274572d38', '094cdfb8-2eca-4ed7-84a2-5860f0450ea5', '09baa82a-7357-46e3-92f5-e9eee6fcf78f', '10bf9064-0058-4f57-91bc-2ac017abf855', '1852c9c0-1300-45e0-9ae6-f8de88569544', '2e642ec7-b0a2-4a70-84cd-829121fe1147', '2fa5e46e-6f1d-40d0-9742-4ea5b5e52f76', '318134f4-8a23-447e-8437-a7ef0d6c8f48', '3e26cef8-4248-40c5-ba17-f07c65c14b35', '44237527-dba5-48a2-b5f1-4015933c6abc', '479263e5-edb1-4dc1-98b2-ac065b0ba62b', '4b17f589-8a59-4a7b-87fc-dd9cb080c18a', '50cd5d36-6936-4117-aa32-884612df314e', '51c0df81-19ad-49bb-9a31-22f3b91f8582', '5488f94b-595c-4f45-ad07-6a9c17f8a736', '588898e2-457d-43d7-b051-316668375e73', '6153f2eb-89d7-42cc-aea5-d027b2ca0f70', '687817f4-bf50-4ff0-865e-c5c8e8048fcb', '6caa7f68-692e-4d92-b3bd-f9def83c98c8', '6cbf71a4-544a-4192-a35e-655a84a201da', '7a3ca5c9-377f-40df-a7cf-76454ff3b8fc', '7e171070-eb97-4332-9861-e4ab89ea8784', '86a22d5a-30a7-4339-aaa1-c6b8a210300d', '87336d1e-0777-41a7-bf8a-3bc006567ac3', '8a5d9ed0-58fe-46d3-9c73-7281af16e612', '8b2b66ea-5775-421c-822f-95626b95dd83', '8e279249-b008-42e3-83a8-8334ffe64cf5', '934fd71d-4e66-48a6-8498-734ff260e8ce', '946ce23a-34fb-4a4b-a11a-309da444d13a', '94c62337-1d37-43e7-902b-089065025ab6', '97299943-d8f7-43b3-8972-db7151179fcf', '97cabf58-7c53-4a67-b012-c41089efca7d', '9a388c97-2ef8-4672-9e6e-d0fbc32bed54', 'a06d5c53-af11-4fdc-a1c1-0d586dbb6e16', 'a13eef6d-d25a-4f41-b95d-028a110ef239', 'a40d0ed6-10eb-4542-a749-6f5a99ebd0ba', 'b0d81cb2-db15-44c5-bfd7-15d5051bb1a8', 'b1a4c561-f46d-4c2f-b8e1-f043e69cf579', 'b37907c2-3ae7-49b1-9bf0-7c5ed1a65a9d', 'b38fe5e5-ebad-4b7e-8d3d-ac90ecc305c1', 'b3b0a312-beea-4314-bea0-7ce02e412486', 'bec1f575-a3cd-4faa-a7ec-02a3c6bde686', 'bf656d95-e89a-439a-968e-80e6b96902b2', 'cf970c70-7eb9-488f-8994-83b3d7c6e9a6', 'd72afd9a-db75-4fc8-a6c4-f8b65cb3a653', 'd8d537b2-b0ce-42a2-8216-2f1f82e34daa', 'dc0cb646-7439-4d21-9ce7-5f42004122db', 'ddc12c53-47c7-44ff-a8f1-b27be7d780eb', 'e9a46dba-84a4-41e6-aece-0fe99a8efb74', 'e9bf025c-f80c-4a3d-b556-adaa1196cb47', 'ebea4582-2442-44f7-904c-bc453c9ee202', 'ee3d3bb1-e3cd-403a-bd75-dfc568ce49bf', 'ef6fef12-f54b-490b-b876-a6483a839f0d', 'f01aa08d-95e8-4ce0-b3dd-96b3cce9d328', 'f3e64503-ac75-4eb7-8d55-46c0ec60d638', 'fabc27af-e1be-4107-b877-9e38c05e4675']","['0x92a14000b52a60e8b6712b16ffaf38f8125336f4cbe9d913fae058861b0389d7', '0x390c0fef7e74e9fbfe1b70041de0d17bbbadd8eff27de25f648db0d8a13ff3a3', '0x0bc99f64ff3849d535a1272d0435de26a5bbf6c4aa3f266922b1bc4680f4c696', '0xe49528059d33dfbcf46e6bd3464118da4348bb804a87a6904d3e68ff86f99bbd', '0x5996c219143703ae16e0bd592f23fd357ce00f30a6fc456277243d3f6b16f665', '0xbbb0eb050fc29704cb40f08b6507c450262a3e25d5c184384138719eedeb6b58', '0x7a297febefbb007be0655ffb4791a2ee9cc950472c3342626fc4ae673271ce4a', '0x54787043c07d049761849479bef3d364c92c784c472e277d23e96fc949a30faa', '0x4f8556be4f8e4cce2454693637ef2c3c4d60f961e45482fbfe7839627b70cf67', '0xcb07340105f70b98cd14101642adf4991d4ab59b147881e2d77f83348e427617', '0x9f65ab243790ed6c872362287fce9c18faca6e8224474289c92bd122894b1a69', '0x7065ba8263a58472fe2eb62ae7c65df215acf9d2605e3fe03a9d222f6dc4c1b4', '0x70971d859851560bdcdcfe5d372e56e6a2c2a02ed5b301e6bc6029159fe141b3', '0xdb534d39ca1e19856fccc660a0f06d8033b6d400fce25f89414e7c1614ac267e', '0x9b235fb6522f40b51ab97d3d62523bf3150cfc769f7086e119315f64eda6ad00', '0x468a19854e7158cb714665bbd80dbf95c7cfcd87572b82151c44e3ec63b23bc0', '0x9b9fad70a66b4773a27fe5feef99b247a4ee64760da4db670ca2ad28b20cdaa3', '0x7eed8998df17684b884f649d23b1bbb9515dbe715219923316d4ac5d0d332c6f', '0xccd6e4a8caba6a6a5d27c02e331c6ecad91f8463759a8061803e1d918ea05e76', '0x7ed1ad87e696205d65c32ce8f652d31ea9ade78fead6c0276c19424a1028d1d7', '0x751542f1ecd4ed4a3d0aad4c236ea38cab7075c1ba8f188b1effcf8935ae3657', '0x7c329157ff463fdf5ea42e63b544c59d76aa7dd9f9eda81763d5380a006ac2cf', '0x5e7927ff5b7a8bb8b4fd57c6c6926919956b01f0577d234929d744be69661f04', '0x61618b8f272064b2ea755ae4e2af7004844f87fc61cfb6305f8e26910f57c7d2', '0xedf9858bcc22cae817889ac0adc277eb2dd1e75aef600dd45806d12888a04389', '0x4f06a9c5b798ce55b9544ab0b08d52c4c2339eb6167e8f036bdb9c71c55b59be', '0x47367750ea9579f61fbe89a3e1fcc41b600c97c515f1b60f0a1ee056d6a8f3a2', '0xbc5079d47f8a94cfdba8391fe3aed6f2e1251886289f6a739385d88031d1a158', '0x5b6dfe09defc2ff70e674f1740ddefcc48b84122bd900dffccda4c940232ff65', '0x9314e057d662ef43d7e643ead370753cdef19e69673d40501f56a56cd406a507', '0x814993a25a808fc78c29f81fb28782a60e52e5f559985978021e47fabca991ec', '0xb0109e5a33e574a8f80d720c32b7bc34cfa529c72b01afcf0658c6eb1eac4bca', '0xf89b6dcd3cc8be630965837d227be5439b9c691ad0e854cde767bf15a0887baf', '0xb592fa0298b5b3e4940e8c0e65a8377b5829ade76e1d6932c448ea9b6c8206d2', '0xe194e1bac0594162cf3efe2818d5ed1d6a82f18903405f06cb5e4d5b71b0a964', '0x7c10ab5bda8708f8734b7adb2045bea187b41f2038e3a485b8edb550f502e0a0', '0x67254ca226f7006df2ac17d4de753046252b6f9ee6cea72a1c64e18d2351ef61', '0x122670b4208345d2b1c248c22c339fc9bc0a5ecfc2b3426d822f435a23c65536', '0x166b9c15595e02a0ee3d23b575f5dbd0059fc5fc98be6d51c4909798efaef634', '0xb14dcbdcfe33fec6087d056ddfe4e6e2cd61a9bc3d332b8dc44d0fe980d1df13', '0x8c691fcbf14786e0eb8a5f1e8f4c14396028a906faee9ead3301ccf55fb3ddfb', '0x11db4834d242dfc98dec09c33ce058732236d400eb1ba1c73ee93cac2adb5f4f', '0xae8752de29ca3236cbf003bef179889fffacf934ba3b188b576398337213185c', '0x8e54df10b72fc4fc99ee306c84b5f0e16691a910890d665a0141b0ed805d1531', '0x15157b76e7908ca95f0cf1765af6946fbf464a2a3cf6c83b1c16bf9da6f510fe', '0x538dbe787d665f0ec8bd072b982a333b14f709de04f691227544b86e878b2e29', '0x8aaa7e4e5a27d0d6010f84fbc47f82073bbafd17d8b42c856ece78abb0be820c', '0x0cea09eb6a9c3db0d808348c1ab4081fbaae9bb501f39edb326e60413d7c6c40', '0x09231c596e67b8b321e43752e55171078f99eebd0b43c4c67da93c4b6a05bd0f', '0x3aa5702f99eb427ecd3cd0a99daa6284174125ef96f7e85d6a9a6d4b7e82c9e0', '0x9c14cf40ce21f5a04cd2a356963c3903e40ef9285d8d7435a1725d68cad865e5', '0x92014e79a5d2024ff7ff18338958639472d1abcd9cc10998f4b05079a8e5ecad', '0x17b12cdd573d0b07fffcd0f44ed956009d44170fb8b2317aa2a835917ec7df1e', '0xd3fe572ba354966d6c8e0de27cd5d3eb1a57f5a6e04fa462f21d4611dbe6cdad', '0xb95e430ce2643d8a279adf82da400dd6d597e715a80640d268003caeeb7aff22', '0x12881f84dfa7c25b7aa567255947e00490bca0e9ab3b5156805ebb15b2ab1076', '0x37e0d5a5ca65ae309903b4bf00f1caab9b084ca56147d268b3238f94659798f4', '0x2bf7d7854ba934994249c59383b0af905824e1fec959103eeb6d6cd99f0fcf68']"
0xF05b5f04B7a77Ca549C0dE06beaF257f40C66FDB,Daimo,1994.0,4000.0,16,26,5,8,1,1,['dcb7fb46-54dd-4887-954f-53c69f819f8e'],['0x48db038025ea8e2a260644883b3ec596eca1b9f095314203aa6a55591407cbc2']
0xF63B3cE2D038f11CA4fC5e11265B7b4417a16aDc,Recipes Onchain,19.0,19.0,1,1,1,1,0,0,['c89a18cb-081f-4a9b-b580-e1285163613a'],['0x48b6c0de2ed45c099ac38870ef825cafe252776d7f5df3d7b759a1b633876c5b']
0xF6bA9cFAA9EB5b3a23D8a837Bc326f2C297ae283,HALP,171.0,171.0,36,36,9,9,0,0,['d12ccce1-4376-421c-989e-bc7c48d3fd13'],['0xed87d73a462deb381fd68e124802549e7ef73adce734ca66113c14af8fe20143']
0xF7032A9261BbB04b0E7b4d2bb3E8f96aCF825AE4,Idle,87.0,197.0,39,54,5,6,1,1,['320999ba-11c1-420f-bdfa-d86f53e2e0a9'],['0xc5391374655d2c8940fdc9fb82a6b9b107907dac5e3fb259fddf7ba8668d17d0']
0xF764467b8c6aBb2c2a3B9835547A2468B04dBa9a,Omni X,557.0,41368.0,395,24199,95,1143,4,188,"['34035eff-5a57-4d55-9a4d-a065b399babb', '7f4c65a6-d3c1-4c34-bf64-65db0b60348a', '9867fb53-d3a6-46de-be0e-c4b6b21a0fa0', 'ccbb4b92-d95b-4de5-a252-b52d0a5fa90a']","['0x8df53d92eb1da6e100400aa48b22c2b61fe2460292e91289025a6ee0262d7fc8', '0xabe64ba5bf95ee5c6021a40a446535c9b3e65df4490d449eebe2c596de9b9596', '0x84ec2cf8a86703c538b248e0f33259e6a3173717fdc98d1d9f53b3f3675b86b7', '0xde02d8998ac8ef9b34dd9b131a5ed9655874cd8e1ac2c3654632f94f2a98d705']"
0xF7aa6f14f78a7Db6Deaa964bCdB20F492A81f9C0,Dark Forest Ares ,182688.0,182688.0,62,62,2,2,2,1,['d92e0972-0341-4f98-be52-a8735c28b725'],['0x38b4519673ff382cba780b346b54e103b163f9fd6ad108060f1e652d5a737bf7']
0xFE35e15bE885750D9b2363cbB6aBDd57AC9C4c40,Dot,17553.0,18936.0,1503,1511,67,69,20,10,['7184f549-29f4-47c2-bdef-d5c6d569f678'],['0x1a2ae62e061da61950328ec8ba5ef3f3ae8a2e0a5530f378a903baeb81a72ddd']
0xFf0A5E35E2400d7f0610d8Ae2Eda108366C9a5C2,Lagrange,1549.0,1549.0,91,91,11,11,4,2,['b549f7dd-8bec-465a-b88a-e85d82e5e11e'],['0x33c6695e245a43f0fbdc55c54ee8083d53359de271d9b56727dd5267d6f95866']
0xa0Cf2260CA43252A3620e80A5CFE40968f042634,VRNouns,70.0,353.0,58,247,25,81,0,1,['4133afe8-311a-417d-b4fa-ea520cfad5df'],['0xacc6146703defc0e69905c51165517b500bb46ddb210013233b5ca454c06fc8e']
0xa6BeE3f99eE2b70672A34A983AF0bBF79C028CD9,Cat Town,437239.0,472652.0,7451,7626,342,361,763,428,"['2501e7cb-57f8-4e70-ac38-bcf8efdeae08', '3838464c-4733-491d-8c02-6c4cad6d53b1']","['0x6eefcac12c79198674a23af4136a33be9d96a54e51e123dc45e0fe55535a4952', '0x9aee940444d422ee9b07b35b33df2975a5b321359ab78ad11bdc7b001ddd9cbd']"
0xb48E8dA63c2aFc5633702B7acf4BDe830c1dE48b,Basepaint,5574.0,12738.0,412,661,161,227,43,55,['127b9325-9491-42cb-af85-94a69055b52a'],['0x31b5aa90f9f11bac5f02283b84850fb2063cf2d6a634a8feae9a4087ddee899c']
0xb6A2Db1a7bE6d7C41f397f49dfB258468580f33E,Clutch,36653.0,36653.0,30492,30492,120,120,368,184,['aa0baef9-7dda-4cf5-a235-b2a8265a0ce2'],['0x4c365ddc0a36912375027a3fed2de0c87be60131eca6fa16fe8254b832456d22']
0xb918f149e75250Ea48838FfE6D3b20402fc4750a,NFTs2Me,0.0,12.0,0,10,0,2,0,0,['3700be15-3fac-4e04-a813-ce0388d6bbe8'],['0xe4c773386da51c05423819a0e79402eb2b23a7f16a23ef9ae311866844c8d11a']
0xbB08A11275989a00b0bFbEE807dfb5e18AA3d19B,EFIHUB,22460.0,22619.0,16177,16207,2459,2473,209,105,"['700f7d42-49f5-4a42-a75c-09fae7f20a6b', 'ddbf8816-6804-4541-8e2a-1b99cd1a4d5a']","['0x140a14032c5e75b1a75b7f5f8d0adad97dfd8e5b4148115afb2de5c52b5b4390', '0xa8e4102373f82ae4cf6bab515a8df36649e44a2a87e844c2c02ac6683621a050']"
0xbD90Fa61ee83123A5c42EB2024Cd00FEDBb932AE,BaseSwap ,33692.0,104890.0,17,54,3,8,2,2,['83ab7eff-40a3-4d89-bf28-368a5a16faa3'],['0x1a4bae4b880fbf854e360f30425ea43af593e70635ff5b1f3c6bdc5241ebcc40']
0xba2b9804FbffA8F1A8F7DC8dd600E21268beF09F,Rounds,2137.0,15592.0,1,8,1,2,0,1,['d39241d2-6037-4f25-8ef8-3560ca94d859'],['0xb482cbd983d3db363feec0e4299561281cf8ffae3a40da5fd5a3b7b0fc7589f6']
0xbeddf3ef667FFdc1e250F53430963CB664301053,Socket protocol,78692.0,281870.0,25539,88903,2094,7323,333,695,['ac830644-44ff-4e95-be1d-3da592f691b2'],['0xaf35f890555b9ed8a03286082c466595e3e9abe44f0f4e468835ebeac077887a']
0xc42c77b6B2A2B220b9502F357bBf51334Db3C93f,Top Test,18.0,50.0,14,24,1,1,0,0,['869cb124-1c70-477c-936d-449a9bccd567'],['0x97ce1a5d0855b3cd2a98e47b34ff88807f82a6a857df8228afe9b5ddb34dcc2b']
0xc446b8Dee9721C1E28A2Cd2E010bcAd7e3BC5909,Crypto: The Game S2,48.0,3082.0,21,971,14,402,0,7,"['1986d0d8-3cfc-4685-899e-909464944ae5', '7ffac1e8-4d34-4e95-b9a6-5bbe40ac81ff']","['0xa4ea34803cbe531951ad4b0315d9b9b5fe9981f581fcbdf0321e48631afdc745', '0x2efc90a42fd22741d58a851f711ef248df2fe9170b4886e58a5b3bfa671bb0eb']"
0xc687f7c9BDfF8d40cF4f789FA105f7dCF0771d6a,Aerodrome Finance,26251866.0,36012251.0,196067,300062,14463,23948,7605,7534,['b4d81636-0080-49bd-8039-0721b3ea716c'],['0xb8056b25864b8ece66f9ab3421b7f527f86592cb534ac30472f59a97daadf5c8']
0xc687f7c9BDfF8d40cF4f789FA105f7dCF0771d6a,Velodrome Finance,7272044.0,9712930.0,49244,76271,17112,20952,1853,2015,['b607f3fb-dd0e-4a9e-b56e-191f8f28fa01'],['0xd5258b86d7643235dcde9da80cdbbe1e2b32a0242089c980bebe889c7c9463fb']
0xc87e97a6219725ce2A184A668Ae74f3733D4C510,Seamless Protocol,0.0,8.0,0,1,0,1,0,0,['70454ef1-f5d4-4b74-a3d0-ce63504972fe'],['0x0d5a74cf7c0a8486b7a089e2589e0a46363dfb5bf5947d8f77a73a9daf9d7579']
0xc9a5cb4bDA310fBcDcd83Fc502C146645280Ce7A,Superbridge,44.0,91.0,40,72,2,3,0,0,['c091964f-8f72-433b-a294-effd324e34ed'],['0xfa1261b44aca3777bba2ecc8fab5c72aae69e4d8679b4e3b07ce1cbcca03743b']
0xcFF7542c8D9B260f0E4D96d3a330b1B42018BAeF,Chibi Clash Kingdoms,2184.0,2606.0,306,306,55,55,6,3,['9ebf0214-b40d-4310-83ed-acc1f7b2d456'],['0x46c6498cdd5fe2c73e6cb204b22085de0b2c40e3d584ca9ea39b43ddc1fd9024']
0xcb8515FD5A82e9aCf0c4A96959504ffcAB891B97,Copin.io,44.0,1271.0,9,862,1,3,0,5,['1f2e7de2-fd5e-4df9-ba8c-f37e1bec64fd'],['0x1590f37b6f6b8e29ca6e4afc843e25d553dedc3e87354b554f02a1093db1203e']
0xcfBf34d385EA2d5Eb947063b67eA226dcDA3DC38,I'm Tired Of Being Hypersurveilled: Art Collection,59.0,4358.0,49,3676,33,1834,0,21,['d415ba93-8f6e-409a-bd9b-d310c6112dc8'],['0x5492f6c199a3bafd4fe5ec9192e0e7e251da6672f9214822801407fbb024ab81']
0xd1c29F8d87b6b881dF4CD0F7C02F59ED1692f02E,NFTFeed,1093.0,2771.0,664,1238,341,536,9,11,['9a780215-3aaf-402a-aa0e-ad33af6c9efb'],['0xb9821c442efef95a4c3db39bd6aeda4c52024544130c171476cec7dfdf6341f0']
0xd271e65Ff057cE4aDE07c52Da78d54b391AD4dcD,TOCD Studio,279.0,4070.0,10,11,2,2,1,1,['e9644a11-f9dd-4efd-b4dc-0d197047512d'],['0x429bd2fa8be35e8050bd29e1bfe49084e1f03a1eac2502966c50e330a5eb822d']
0xdBe66793535889268fb707993b636d6144962fF9,MintSwap,17855.0,17855.0,2549,2549,877,877,45,22,['eca9c362-f6db-42a6-b4bb-2240104e2af8'],['0x58f28b7e5e8f94a6f84282950d8dc14a80eb4442fc4883ef90906bd456a071a9']
0xe7ccFBaF5375da67F6609aDa8023B4033e3cA0d0,OpenALCHI,42.0,42.0,7,7,2,2,0,0,['52edcb9e-1859-4e5a-b123-abefca4bd69c'],['0x10da013ccf25d83ef1191725173d9094bf58c169012d0aba178efe913f60641d']
0xe999E0cEf99050b59DbE9472aa9a3c3E0816FdB5,Spotlight,99.0,99.0,39,39,2,2,0,0,['2b3eb503-4f39-4737-ac25-8b78b54aac7e'],['0x8f7389003b5579d63644f9bb96d90f153436b2e9c23aa355c607b9c7cc853449']
0xeAb4717efb29f91429dB6322F42Edc53C94F0941,Avantis ,3613708.0,4533722.0,31027,43365,14001,18410,976,732,"['0592c036-8570-4c55-83bd-759ac99860ad', '0ca5ba62-a46f-4ae6-b070-c95df77a8c27', 'b19c03b3-1c99-44bd-af7b-ac398dd1bdee', 'f037bbd9-1611-4f70-8c24-66a8de113c05', 'fbb8d2a3-90a3-478a-ae7b-ee6c50cb024a']","['0x83afac817ad742e325ae640f2de7172b5151123dc7e67edc11d06e98683d296f', '0x39e3673553beea2095af67d621e164599e090253cfe615f08c51da4c2ff42eb1', '0x36c53347f357dfbc9c289fc66effa1c2946c7149d3c4c624fdd7e0158a7ba5f7', '0x417254c7dd3c24558e2203ec0586369cdc838e731e2a0617ba6df5772d79b42f', '0x4dc9d9b57ba1e0aac415588a53d6d30b285b93fe03bfd9fe77b1712a1c176c5e']"
0xeD59D863310d387455B5077de2D08055d7E39C61,OmniHub,19509.0,19509.0,17733,17733,4523,4523,206,103,['a1f7553b-18c4-4768-9194-f9e19f1de784'],['0xff8fbe053c266cd1fbbb957d93c97844243b290b34eec652b9c2b00d06a70556']
0xec14D5F694841Ca7b851013F096B0060026FD38C,Superform,91890.0,123151.0,41033,50024,13069,15485,817,536,['7c20aa1a-9c30-4a6c-aa77-f1fdf0570c59'],['0x3cd583e5aaa30a7e0f345eb93d6cb682c69f2d6658210a446df19a181be95ef2']
0xee324c588ceF1BF1c1360883E4318834af66366d,Kiwi News,428.0,736.0,181,269,134,207,3,2,['63ccc515-d1aa-4f68-b5a4-2177b10f81cc'],['0x975e8f70d0dd8182b87fdb852dd929d8501b0f146ead0234d6cce20a7beb3bee']
0xee5a3e1C0049089683F6183Cb5a4928085b330c0,Starta x Degen Bridge,18.0,183.0,12,85,10,67,0,0,['628e384f-7826-4f97-8509-aff80c9bf4f2'],['0xb6a42694aa4645b2e87a46d60a56ffce28cca4e1a148df72830a4957fd9af62d']
0xf01Dd015Bc442d872275A79b9caE84A6ff9B2A27,Opti.Domains,1.0,2078.0,1,1910,1,363,0,10,['4d7a1967-86d1-4818-820f-5b2695243cbc'],['0xa45961c425633d348b287e1cc10c6ec0c47009e447cd32dff5237a249aee3a04']
0xf1B8c360317bf1249F976ab82c78aE50365822ec,Optimism Fractal Respect Game,82.0,206.0,17,31,11,14,0,0,['17d8f473-a44a-40c9-ad70-41d479db86e3'],['0x24a5082a2acf411809bd02fef26962dba8acb502eb7e03a90cdf642f35c3f431']
0xf1a871aF236eC0Da070C3b09302270Ccf4E35794,AI,1880.0,2356.0,388,475,17,18,9,6,['c31e36bc-69ad-40e8-a3b9-29f5c1d6d86a'],['0x18fd1e70af50fb1bdf84e13d4686dbd9fc8f5def79f816f0c016c10165c75c53']
0xf3B06b503652a5E075D423F97056DFde0C4b066F,Votecaster,23.0,23.0,4,4,4,4,0,0,['1c0ae0df-9238-497d-8fa0-ad05f381cf34'],['0xe34e8f9287c2bf0b9757b51abc8162c4733f015ac54d2d478a10a3b8fecfbdad']
0xf40eD759BF4C05DF1Af180FE27d470E52D7ca611,Cat Town | Gacha,147.0,147.0,10,10,4,4,0,0,['77e31db9-a73e-4aad-a8eb-694bd5c0ae54'],['0x60917cd7205e88ad4c0140ffeebaf9e771a1233e91c683af3f014f8282c69ff5']
